{"type":"FeatureCollection","features":[{"type":"Feature","properties":{"name":"NH707A","ref":"NH707A","highway":"trunk"},"geometry":{"type":"Point","coordinates":[78.48509,30.35271]}},{"type":"Feature","properties":{"name":"NH7","ref":"NH7","highway":"trunk"},"geometry":{"type":"Point","coordinates":[78.38835,30.13719]}},{"type":"Feature","properties":{"name":"Bridge","ref":"","highway":"tertiary"},"geometry":{"type":"Point","coordinates":[78.55532,30.37275]}},{"type":"Feature","properties":{"name":"Bridge","ref":"","highway":"tertiary"},"geometry":{"type":"Point","coordinates":[78.13144,30.38708]}},{"type":"Feature","properties":{"name":"NH7","ref":"NH7","highway":"trunk"},"geometry":{"type":"Point","coordinates":[78.30156,30.10867]}},{"type":"Feature","properties":{"name":"Bridge","ref":"","highway":"tertiary"},"geometry":{"type":"Point","coordinates":[78.15572,29.94209]}},{"type":"Feature","properties":{"name":"Bridge","ref":"","highway":"tertiary"},"geometry":{"type":"Point","coordinates":[78.15597,29.94226]}},{"type":"Feature","properties":{"name":"Bridge","ref":"","highway":"secondary"},"geometry":{"type":"Point","coordinates":[78.16219,29.94725]}},{"type":"Feature","properties":{"name":"NH34","ref":"NH34","highway":"trunk"},"geometry":{"type":"Point","coordinates":[78.16659,29.94372]}},{"type":"Feature","properties":{"name":"NH7","ref":"NH7","highway":"trunk"},"geometry":{"type":"Point","coordinates":[78.30762,30.12078]}},{"type":"Feature","properties":{"name":"Pashulok Barriage","ref":"","highway":"tertiary"},"geometry":{"type":"Point","coordinates":[78.28832,30.07421]}},{"type":"Feature","properties":{"name":"Rishikesh Bypass","ref":"","highway":"tertiary"},"geometry":{"type":"Point","coordinates":[78.2903,30.07401]}},{"type":"Feature","properties":{"name":"Bridge","ref":"","highway":"tertiary"},"geometry":{"type":"Point","coordinates":[78.18291,29.956]}},{"type":"Feature","properties":{"name":"Bridge","ref":"","highway":"tertiary"},"geometry":{"type":"Point","coordinates":[78.18036,29.95645]}},{"type":"Feature","properties":{"name":"Bridge","ref":"","highway":"tertiary"},"geometry":{"type":"Point","coordinates":[78.21596,29.97741]}},{"type":"Feature","properties":{"name":"Bridge","ref":"","highway":"tertiary"},"geometry":{"type":"Point","coordinates":[78.26429,30.02881]}},{"type":"Feature","properties":{"name":"NH34","ref":"NH34","highway":"trunk"},"geometry":{"type":"Point","coordinates":[78.17363,29.91289]}},{"type":"Feature","properties":{"name":"Bridge","ref":"","highway":"tertiary"},"geometry":{"type":"Point","coordinates":[78.14646,29.93602]}},{"type":"Feature","properties":{"name":"Bridge","ref":"","highway":"tertiary"},"geometry":{"type":"Point","coordinates":[78.15706,29.93967]}},{"type":"Feature","properties":{"name":"Bridge","ref":"","highway":"tertiary"},"geometry":{"type":"Point","coordinates":[78.13709,29.93036]}},{"type":"Feature","properties":{"name":"Bridge","ref":"","highway":"secondary"},"geometry":{"type":"Point","coordinates":[78.13158,29.92704]}},{"type":"Feature","properties":{"name":"Haridwar Main Road","ref":"","highway":"secondary"},"geometry":{"type":"Point","coordinates":[78.10363,29.91961]}},{"type":"Feature","properties":{"name":"Bridge","ref":"","highway":"secondary"},"geometry":{"type":"Point","coordinates":[78.13127,29.92687]}},{"type":"Feature","properties":{"name":"Haridwar Main Road","ref":"","highway":"secondary"},"geometry":{"type":"Point","coordinates":[78.10345,29.91964]}},{"type":"Feature","properties":{"name":"Bridge","ref":"","highway":"secondary"},"geometry":{"type":"Point","coordinates":[78.1311,30.17825]}},{"type":"Feature","properties":{"name":"Bridge","ref":"","highway":"secondary"},"geometry":{"type":"Point","coordinates":[78.30009,30.12584]}},{"type":"Feature","properties":{"name":"NH34","ref":"NH34","highway":"trunk"},"geometry":{"type":"Point","coordinates":[78.17386,29.93796]}},{"type":"Feature","properties":{"name":"NH34","ref":"NH34","highway":"trunk"},"geometry":{"type":"Point","coordinates":[78.17091,29.94029]}},{"type":"Feature","properties":{"name":"Bridge","ref":"","highway":"secondary"},"geometry":{"type":"Point","coordinates":[78.35356,30.12687]}},{"type":"Feature","properties":{"name":"NH334","ref":"NH334","highway":"trunk"},"geometry":{"type":"Point","coordinates":[78.15724,29.94018]}},{"type":"Feature","properties":{"name":"NH334","ref":"NH334","highway":"trunk"},"geometry":{"type":"Point","coordinates":[78.16425,29.94591]}},{"type":"Feature","properties":{"name":"Theva-Maldevta Road","ref":"","highway":"tertiary"},"geometry":{"type":"Point","coordinates":[78.11488,30.34153]}},{"type":"Feature","properties":{"name":"Bridge","ref":"","highway":"tertiary"},"geometry":{"type":"Point","coordinates":[78.13995,30.35213]}},{"type":"Feature","properties":{"name":"NH7","ref":"NH7","highway":"trunk"},"geometry":{"type":"Point","coordinates":[78.16132,30.13438]}},{"type":"Feature","properties":{"name":"Bridge","ref":"","highway":"tertiary"},"geometry":{"type":"Point","coordinates":[78.22759,30.21565]}},{"type":"Feature","properties":{"name":"Bridge","ref":"","highway":"tertiary"},"geometry":{"type":"Point","coordinates":[78.44181,30.34263]}},{"type":"Feature","properties":{"name":"Bridge","ref":"","highway":"tertiary"},"geometry":{"type":"Point","coordinates":[78.44628,30.36113]}},{"type":"Feature","properties":{"name":"Bridge","ref":"","highway":"secondary"},"geometry":{"type":"Point","coordinates":[78.44988,29.95093]}},{"type":"Feature","properties":{"name":"Bridge","ref":"","highway":"tertiary"},"geometry":{"type":"Point","coordinates":[78.20612,29.96626]}},{"type":"Feature","properties":{"name":"Bridge","ref":"","highway":"tertiary"},"geometry":{"type":"Point","coordinates":[78.20055,29.96497]}},{"type":"Feature","properties":{"name":"Bridge","ref":"","highway":"tertiary"},"geometry":{"type":"Point","coordinates":[78.17544,29.94548]}},{"type":"Feature","properties":{"name":"Bridge","ref":"","highway":"tertiary"},"geometry":{"type":"Point","coordinates":[78.14433,29.9182]}},{"type":"Feature","properties":{"name":"Bridge","ref":"","highway":"tertiary"},"geometry":{"type":"Point","coordinates":[78.14914,29.9223]}},{"type":"Feature","properties":{"name":"Bridge","ref":"","highway":"tertiary"},"geometry":{"type":"Point","coordinates":[78.15138,29.93083]}},{"type":"Feature","properties":{"name":"Haridwar Main Road","ref":"Old NH 58","highway":"secondary"},"geometry":{"type":"Point","coordinates":[78.11358,29.92309]}},{"type":"Feature","properties":{"name":"Bridge","ref":"","highway":"tertiary"},"geometry":{"type":"Point","coordinates":[78.14081,29.92672]}},{"type":"Feature","properties":{"name":"NH334","ref":"NH334","highway":"trunk"},"geometry":{"type":"Point","coordinates":[78.11133,29.91888]}},{"type":"Feature","properties":{"name":"NH7","ref":"NH7","highway":"trunk"},"geometry":{"type":"Point","coordinates":[78.43431,30.11599]}},{"type":"Feature","properties":{"name":"Haridwar Main Road","ref":"Old NH 58","highway":"secondary"},"geometry":{"type":"Point","coordinates":[78.10955,29.9207]}},{"type":"Feature","properties":{"name":"NH7;NH34","ref":"NH7;NH34","highway":"trunk"},"geometry":{"type":"Point","coordinates":[78.2313,30.05973]}},{"type":"Feature","properties":{"name":"Bridge","ref":"","highway":"primary"},"geometry":{"type":"Point","coordinates":[78.48664,30.29815]}},{"type":"Feature","properties":{"name":"NH7","ref":"NH7","highway":"trunk"},"geometry":{"type":"Point","coordinates":[78.27847,30.09247]}},{"type":"Feature","properties":{"name":"Rishikesh Bypass","ref":"","highway":"secondary"},"geometry":{"type":"Point","coordinates":[78.2795,30.07278]}},{"type":"Feature","properties":{"name":"NH34","ref":"NH34","highway":"trunk"},"geometry":{"type":"Point","coordinates":[78.36815,30.28145]}},{"type":"Feature","properties":{"name":"Bridge","ref":"","highway":"tertiary"},"geometry":{"type":"Point","coordinates":[78.60422,30.06761]}},{"type":"Feature","properties":{"name":"Bridge","ref":"","highway":"tertiary"},"geometry":{"type":"Point","coordinates":[78.60356,30.06411]}},{"type":"Feature","properties":{"name":"Bridge","ref":"","highway":"tertiary"},"geometry":{"type":"Point","coordinates":[78.63498,30.02131]}},{"type":"Feature","properties":{"name":"Bridge","ref":"","highway":"tertiary"},"geometry":{"type":"Point","coordinates":[78.58842,30.11924]}},{"type":"Feature","properties":{"name":"Bridge","ref":"","highway":"tertiary"},"geometry":{"type":"Point","coordinates":[78.59588,30.05858]}},{"type":"Feature","properties":{"name":"NH7","ref":"NH7","highway":"trunk"},"geometry":{"type":"Point","coordinates":[78.59879,30.15119]}},{"type":"Feature","properties":{"name":"Bridge","ref":"","highway":"tertiary"},"geometry":{"type":"Point","coordinates":[78.59677,30.1406]}},{"type":"Feature","properties":{"name":"NH7","ref":"NH7","highway":"trunk"},"geometry":{"type":"Point","coordinates":[78.50352,30.07292]}},{"type":"Feature","properties":{"name":"NH707A","ref":"NH707A","highway":"trunk"},"geometry":{"type":"Point","coordinates":[78.62736,30.35183]}},{"type":"Feature","properties":{"name":"NH34","ref":"NH34","highway":"trunk"},"geometry":{"type":"Point","coordinates":[78.36227,30.26561]}},{"type":"Feature","properties":{"name":"Bridge","ref":"","highway":"tertiary"},"geometry":{"type":"Point","coordinates":[78.36188,30.33599]}},{"type":"Feature","properties":{"name":"Bridge","ref":"","highway":"tertiary"},"geometry":{"type":"Point","coordinates":[78.3282,30.36318]}},{"type":"Feature","properties":{"name":"Bridge","ref":"","highway":"tertiary"},"geometry":{"type":"Point","coordinates":[78.35177,30.34388]}},{"type":"Feature","properties":{"name":"Bridge","ref":"","highway":"tertiary"},"geometry":{"type":"Point","coordinates":[78.3626,30.33575]}},{"type":"Feature","properties":{"name":"Bridge","ref":"","highway":"tertiary"},"geometry":{"type":"Point","coordinates":[78.32553,30.24287]}},{"type":"Feature","properties":{"name":"NH34","ref":"NH34","highway":"trunk"},"geometry":{"type":"Point","coordinates":[78.29575,30.16734]}},{"type":"Feature","properties":{"name":"NH7","ref":"NH7","highway":"trunk"},"geometry":{"type":"Point","coordinates":[78.58415,30.12117]}},{"type":"Feature","properties":{"name":"Bridge","ref":"","highway":"tertiary"},"geometry":{"type":"Point","coordinates":[78.11822,30.29463]}},{"type":"Feature","properties":{"name":"Janki Setu","ref":"","highway":"tertiary"},"geometry":{"type":"Point","coordinates":[78.30873,30.11643]}},{"type":"Feature","properties":{"name":"NH7","ref":"NH7","highway":"trunk"},"geometry":{"type":"Point","coordinates":[78.12544,30.19823]}},{"type":"Feature","properties":{"name":"NH7","ref":"NH7","highway":"trunk"},"geometry":{"type":"Point","coordinates":[78.12553,30.19827]}},{"type":"Feature","properties":{"name":"Bridge","ref":"","highway":"tertiary"},"geometry":{"type":"Point","coordinates":[78.15197,30.25396]}},{"type":"Feature","properties":{"name":"Bridge","ref":"","highway":"tertiary"},"geometry":{"type":"Point","coordinates":[78.15757,30.24342]}},{"type":"Feature","properties":{"name":"Bridge","ref":"","highway":"tertiary"},"geometry":{"type":"Point","coordinates":[78.12818,30.29196]}},{"type":"Feature","properties":{"name":"NH7","ref":"NH7","highway":"trunk"},"geometry":{"type":"Point","coordinates":[78.16134,30.1345]}},{"type":"Feature","properties":{"name":"Sahastradhara Bridge","ref":"","highway":"tertiary"},"geometry":{"type":"Point","coordinates":[78.11625,30.37768]}},{"type":"Feature","properties":{"name":"Chamba-Barkot Road","ref":"","highway":"secondary"},"geometry":{"type":"Point","coordinates":[78.47747,30.3777]}},{"type":"Feature","properties":{"name":"Bridge","ref":"","highway":"secondary"},"geometry":{"type":"Point","coordinates":[78.17501,29.97606]}},{"type":"Feature","properties":{"name":"Bridge","ref":"","highway":"tertiary"},"geometry":{"type":"Point","coordinates":[78.27354,30.1902]}},{"type":"Feature","properties":{"name":"NH707A","ref":"NH707A","highway":"trunk"},"geometry":{"type":"Point","coordinates":[78.64174,30.34246]}},{"type":"Feature","properties":{"name":"NH707A","ref":"NH707A","highway":"trunk"},"geometry":{"type":"Point","coordinates":[78.64086,30.34377]}},{"type":"Feature","properties":{"name":"NH7","ref":"NH7","highway":"primary"},"geometry":{"type":"Point","coordinates":[78.27945,30.11793]}},{"type":"Feature","properties":{"name":"NH334","ref":"NH334","highway":"trunk"},"geometry":{"type":"Point","coordinates":[78.10555,29.91789]}},{"type":"Feature","properties":{"name":"NH334","ref":"NH334","highway":"trunk"},"geometry":{"type":"Point","coordinates":[78.10883,29.91905]}},{"type":"Feature","properties":{"name":"NH334","ref":"NH334","highway":"trunk"},"geometry":{"type":"Point","coordinates":[78.11135,29.91901]}},{"type":"Feature","properties":{"name":"NH7","ref":"NH7","highway":"trunk"},"geometry":{"type":"Point","coordinates":[78.1417,30.18305]}},{"type":"Feature","properties":{"name":"NH7","ref":"NH7","highway":"trunk"},"geometry":{"type":"Point","coordinates":[78.14157,30.18299]}},{"type":"Feature","properties":{"name":"NH7","ref":"NH7","highway":"trunk"},"geometry":{"type":"Point","coordinates":[78.13294,30.19044]}},{"type":"Feature","properties":{"name":"NH7","ref":"NH7","highway":"trunk"},"geometry":{"type":"Point","coordinates":[78.13304,30.19052]}},{"type":"Feature","properties":{"name":"NH334","ref":"NH334","highway":"trunk"},"geometry":{"type":"Point","coordinates":[78.10422,29.91794]}},{"type":"Feature","properties":{"name":"Bridge","ref":"","highway":"tertiary"},"geometry":{"type":"Point","coordinates":[78.10716,29.91895]}},{"type":"Feature","properties":{"name":"NH334","ref":"NH334","highway":"trunk"},"geometry":{"type":"Point","coordinates":[78.11354,29.91888]}},{"type":"Feature","properties":{"name":"NH334","ref":"NH334","highway":"trunk"},"geometry":{"type":"Point","coordinates":[78.11354,29.919]}},{"type":"Feature","properties":{"name":"NH334","ref":"NH334","highway":"trunk"},"geometry":{"type":"Point","coordinates":[78.16453,29.94597]}},{"type":"Feature","properties":{"name":"NH334","ref":"NH334","highway":"trunk"},"geometry":{"type":"Point","coordinates":[78.15596,29.94043]}},{"type":"Feature","properties":{"name":"Bridge","ref":"","highway":"secondary"},"geometry":{"type":"Point","coordinates":[78.16202,29.94714]}},{"type":"Feature","properties":{"name":"NH34","ref":"NH34","highway":"trunk"},"geometry":{"type":"Point","coordinates":[78.17337,29.95457]}},{"type":"Feature","properties":{"name":"NH34","ref":"NH34","highway":"trunk"},"geometry":{"type":"Point","coordinates":[78.17353,29.95452]}},{"type":"Feature","properties":{"name":"NH34","ref":"NH34","highway":"trunk"},"geometry":{"type":"Point","coordinates":[78.1755,29.95805]}},{"type":"Feature","properties":{"name":"NH34","ref":"NH34","highway":"trunk"},"geometry":{"type":"Point","coordinates":[78.17567,29.95801]}},{"type":"Feature","properties":{"name":"NH34","ref":"NH34","highway":"trunk"},"geometry":{"type":"Point","coordinates":[78.1763,29.95972]}},{"type":"Feature","properties":{"name":"NH34","ref":"NH34","highway":"trunk"},"geometry":{"type":"Point","coordinates":[78.17614,29.95976]}},{"type":"Feature","properties":{"name":"NH34","ref":"NH34","highway":"trunk"},"geometry":{"type":"Point","coordinates":[78.18519,29.98357]}},{"type":"Feature","properties":{"name":"NH34","ref":"NH34","highway":"trunk"},"geometry":{"type":"Point","coordinates":[78.18115,29.97046]}},{"type":"Feature","properties":{"name":"NH34","ref":"NH34","highway":"trunk"},"geometry":{"type":"Point","coordinates":[78.18133,29.97041]}},{"type":"Feature","properties":{"name":"Bridge","ref":"","highway":"tertiary"},"geometry":{"type":"Point","coordinates":[78.11152,29.91997]}},{"type":"Feature","properties":{"name":"NH34","ref":"NH34","highway":"trunk"},"geometry":{"type":"Point","coordinates":[78.19402,30.00597]}},{"type":"Feature","properties":{"name":"NH34","ref":"NH34","highway":"trunk"},"geometry":{"type":"Point","coordinates":[78.1941,30.00593]}},{"type":"Feature","properties":{"name":"NH34","ref":"NH34","highway":"trunk"},"geometry":{"type":"Point","coordinates":[78.21218,30.04538]}},{"type":"Feature","properties":{"name":"NH34","ref":"NH34","highway":"trunk"},"geometry":{"type":"Point","coordinates":[78.21253,30.0452]}},{"type":"Feature","properties":{"name":"NH34","ref":"NH34","highway":"trunk"},"geometry":{"type":"Point","coordinates":[78.21095,30.04381]}},{"type":"Feature","properties":{"name":"NH34","ref":"NH34","highway":"trunk"},"geometry":{"type":"Point","coordinates":[78.21111,30.04339]}},{"type":"Feature","properties":{"name":"NH34","ref":"NH34","highway":"trunk"},"geometry":{"type":"Point","coordinates":[78.21837,30.0523]}},{"type":"Feature","properties":{"name":"NH34","ref":"NH34","highway":"trunk"},"geometry":{"type":"Point","coordinates":[78.22101,30.05476]}},{"type":"Feature","properties":{"name":"NH34","ref":"NH34","highway":"trunk"},"geometry":{"type":"Point","coordinates":[78.21847,30.05223]}},{"type":"Feature","properties":{"name":"Laltaro Pul","ref":"","highway":"secondary"},"geometry":{"type":"Point","coordinates":[78.15988,29.94951]}},{"type":"Feature","properties":{"name":"Old National Highway 58","ref":"","highway":"tertiary"},"geometry":{"type":"Point","coordinates":[78.17455,29.97077]}},{"type":"Feature","properties":{"name":"NH7","ref":"NH7","highway":"trunk"},"geometry":{"type":"Point","coordinates":[78.27855,30.0924]}},{"type":"Feature","properties":{"name":"NH7","ref":"NH7","highway":"primary"},"geometry":{"type":"Point","coordinates":[78.27945,30.11785]}},{"type":"Feature","properties":{"name":"Bridge","ref":"","highway":"tertiary"},"geometry":{"type":"Point","coordinates":[78.23833,30.17245]}},{"type":"Feature","properties":{"name":"Bridge","ref":"","highway":"primary"},"geometry":{"type":"Point","coordinates":[78.20083,30.18866]}},{"type":"Feature","properties":{"name":"NH7","ref":"NH7","highway":"trunk"},"geometry":{"type":"Point","coordinates":[78.17826,30.09974]}},{"type":"Feature","properties":{"name":"NH7","ref":"NH7","highway":"trunk"},"geometry":{"type":"Point","coordinates":[78.17839,30.09979]}},{"type":"Feature","properties":{"name":"NH7","ref":"NH7","highway":"trunk"},"geometry":{"type":"Point","coordinates":[78.20686,30.06854]}},{"type":"Feature","properties":{"name":"NH7","ref":"NH7","highway":"trunk"},"geometry":{"type":"Point","coordinates":[78.20698,30.06862]}},{"type":"Feature","properties":{"name":"NH7","ref":"NH7","highway":"trunk"},"geometry":{"type":"Point","coordinates":[78.12763,30.19557]}},{"type":"Feature","properties":{"name":"NH7","ref":"NH7","highway":"trunk"},"geometry":{"type":"Point","coordinates":[78.12751,30.1955]}},{"type":"Feature","properties":{"name":"Bridge","ref":"","highway":"tertiary"},"geometry":{"type":"Point","coordinates":[78.53921,30.40121]}},{"type":"Feature","properties":{"name":"Bridge","ref":"","highway":"tertiary"},"geometry":{"type":"Point","coordinates":[78.50557,30.4084]}},{"type":"Feature","properties":{"name":"Bridge","ref":"","highway":"tertiary"},"geometry":{"type":"Point","coordinates":[78.2225,30.25848]}},{"type":"Feature","properties":{"name":"Bridge","ref":"","highway":"tertiary"},"geometry":{"type":"Point","coordinates":[78.27932,30.24231]}},{"type":"Feature","properties":{"name":"Bridge","ref":"","highway":"tertiary"},"geometry":{"type":"Point","coordinates":[78.14224,30.2711]}},{"type":"Feature","properties":{"name":"Bridge","ref":"","highway":"tertiary"},"geometry":{"type":"Point","coordinates":[78.18392,30.41418]}},{"type":"Feature","properties":{"name":"Bridge","ref":"","highway":"tertiary"},"geometry":{"type":"Point","coordinates":[78.2154,30.27682]}},{"type":"Feature","properties":{"name":"Bridge","ref":"","highway":"tertiary"},"geometry":{"type":"Point","coordinates":[78.23758,30.2227]}},{"type":"Feature","properties":{"name":"Bridge","ref":"","highway":"tertiary"},"geometry":{"type":"Point","coordinates":[78.25954,30.17478]}},{"type":"Feature","properties":{"name":"Bridge","ref":"","highway":"tertiary"},"geometry":{"type":"Point","coordinates":[78.25833,30.17396]}},{"type":"Feature","properties":{"name":"NH34","ref":"NH34","highway":"trunk"},"geometry":{"type":"Point","coordinates":[78.28626,30.11699]}},{"type":"Feature","properties":{"name":"NH34","ref":"NH34","highway":"trunk"},"geometry":{"type":"Point","coordinates":[78.28708,30.11794]}},{"type":"Feature","properties":{"name":"Bridge","ref":"","highway":"tertiary"},"geometry":{"type":"Point","coordinates":[78.21504,29.97528]}},{"type":"Feature","properties":{"name":"Bridge","ref":"","highway":"tertiary"},"geometry":{"type":"Point","coordinates":[78.13095,30.39943]}},{"type":"Feature","properties":{"name":"Bridge","ref":"","highway":"tertiary"},"geometry":{"type":"Point","coordinates":[78.23734,30.20979]}},{"type":"Feature","properties":{"name":"Bridge","ref":"","highway":"tertiary"},"geometry":{"type":"Point","coordinates":[78.23286,30.20822]}},{"type":"Feature","properties":{"name":"Marautha- Reniwala- Road","ref":"","highway":"tertiary"},"geometry":{"type":"Point","coordinates":[78.11396,30.36357]}},{"type":"Feature","properties":{"name":"Bridge","ref":"","highway":"tertiary"},"geometry":{"type":"Point","coordinates":[78.16462,30.32977]}},{"type":"Feature","properties":{"name":"Bridge","ref":"","highway":"tertiary"},"geometry":{"type":"Point","coordinates":[78.15368,30.32452]}},{"type":"Feature","properties":{"name":"Bridge","ref":"","highway":"tertiary"},"geometry":{"type":"Point","coordinates":[78.14768,30.33378]}},{"type":"Feature","properties":{"name":"Bridge","ref":"","highway":"tertiary"},"geometry":{"type":"Point","coordinates":[78.14084,30.3402]}},{"type":"Feature","properties":{"name":"Bridge","ref":"","highway":"tertiary"},"geometry":{"type":"Point","coordinates":[78.14032,30.35079]}},{"type":"Feature","properties":{"name":"Bridge","ref":"","highway":"tertiary"},"geometry":{"type":"Point","coordinates":[78.13826,30.34566]}},{"type":"Feature","properties":{"name":"Bridge","ref":"","highway":"tertiary"},"geometry":{"type":"Point","coordinates":[78.13796,30.34548]}},{"type":"Feature","properties":{"name":"Bridge","ref":"","highway":"tertiary"},"geometry":{"type":"Point","coordinates":[78.11622,30.3432]}},{"type":"Feature","properties":{"name":"NH7","ref":"NH7","highway":"trunk"},"geometry":{"type":"Point","coordinates":[78.13871,30.1863]}},{"type":"Feature","properties":{"name":"Bridge","ref":"","highway":"primary"},"geometry":{"type":"Point","coordinates":[78.13856,30.18615]}},{"type":"Feature","properties":{"name":"Bridge","ref":"","highway":"primary"},"geometry":{"type":"Point","coordinates":[78.13876,30.18636]}},{"type":"Feature","properties":{"name":"NH7","ref":"NH7","highway":"trunk"},"geometry":{"type":"Point","coordinates":[78.13861,30.18621]}},{"type":"Feature","properties":{"name":"Bridge","ref":"","highway":"tertiary"},"geometry":{"type":"Point","coordinates":[78.11488,30.34145]}},{"type":"Feature","properties":{"name":"NH7","ref":"NH7","highway":"primary"},"geometry":{"type":"Point","coordinates":[78.14688,30.18585]}},{"type":"Feature","properties":{"name":"NH7","ref":"NH7","highway":"trunk"},"geometry":{"type":"Point","coordinates":[78.25859,30.07782]}},{"type":"Feature","properties":{"name":"NH7","ref":"NH7","highway":"trunk"},"geometry":{"type":"Point","coordinates":[78.25865,30.07775]}},{"type":"Feature","properties":{"name":"Rishikesh Bypass","ref":"NH34","highway":"trunk"},"geometry":{"type":"Point","coordinates":[78.25713,30.08087]}},{"type":"Feature","properties":{"name":"Bridge","ref":"","highway":"tertiary"},"geometry":{"type":"Point","coordinates":[78.11573,29.90531]}},{"type":"Feature","properties":{"name":"NH34","ref":"NH34","highway":"trunk"},"geometry":{"type":"Point","coordinates":[78.17752,29.96247]}},{"type":"Feature","properties":{"name":"NH34","ref":"NH34","highway":"trunk"},"geometry":{"type":"Point","coordinates":[78.17738,29.96255]}},{"type":"Feature","properties":{"name":"Bridge","ref":"","highway":"tertiary"},"geometry":{"type":"Point","coordinates":[78.14438,29.91994]}},{"type":"Feature","properties":{"name":"Bridge","ref":"","highway":"tertiary"},"geometry":{"type":"Point","coordinates":[78.13168,29.91739]}},{"type":"Feature","properties":{"name":"Bridge","ref":"","highway":"tertiary"},"geometry":{"type":"Point","coordinates":[78.15449,29.94055]}},{"type":"Feature","properties":{"name":"NH34","ref":"NH34","highway":"trunk"},"geometry":{"type":"Point","coordinates":[78.17484,29.9568]}},{"type":"Feature","properties":{"name":"NH34","ref":"NH34","highway":"trunk"},"geometry":{"type":"Point","coordinates":[78.17499,29.95675]}},{"type":"Feature","properties":{"name":"Bridge","ref":"","highway":"tertiary"},"geometry":{"type":"Point","coordinates":[78.11191,29.9301]}},{"type":"Feature","properties":{"name":"Bridge","ref":"","highway":"tertiary"},"geometry":{"type":"Point","coordinates":[78.11344,29.92571]}},{"type":"Feature","properties":{"name":"Haridwar Bypass Road","ref":"Haridwar Bypass","highway":"secondary"},"geometry":{"type":"Point","coordinates":[78.16628,29.96044]}},{"type":"Feature","properties":{"name":"Haridwar Bypass Road","ref":"Haridwar Bypass","highway":"secondary"},"geometry":{"type":"Point","coordinates":[78.16809,29.95812]}},{"type":"Feature","properties":{"name":"Bridge","ref":"","highway":"tertiary"},"geometry":{"type":"Point","coordinates":[78.13677,29.92953]}},{"type":"Feature","properties":{"name":"Bridge","ref":"","highway":"tertiary"},"geometry":{"type":"Point","coordinates":[78.13701,29.92927]}},{"type":"Feature","properties":{"name":"NH334","ref":"NH334","highway":"trunk"},"geometry":{"type":"Point","coordinates":[78.1378,29.92996]}},{"type":"Feature","properties":{"name":"NH334","ref":"NH334","highway":"trunk"},"geometry":{"type":"Point","coordinates":[78.13787,29.92982]}},{"type":"Feature","properties":{"name":"NH334","ref":"NH334","highway":"trunk"},"geometry":{"type":"Point","coordinates":[78.1319,29.92632]}},{"type":"Feature","properties":{"name":"NH334","ref":"NH334","highway":"trunk"},"geometry":{"type":"Point","coordinates":[78.13183,29.92641]}},{"type":"Feature","properties":{"name":"Bridge","ref":"","highway":"tertiary"},"geometry":{"type":"Point","coordinates":[78.26129,30.35722]}},{"type":"Feature","properties":{"name":"NH7","ref":"NH7","highway":"trunk"},"geometry":{"type":"Point","coordinates":[78.43504,30.08695]}},{"type":"Feature","properties":{"name":"Bridge","ref":"","highway":"secondary"},"geometry":{"type":"Point","coordinates":[78.38132,30.08079]}},{"type":"Feature","properties":{"name":"NH707A","ref":"NH707A","highway":"trunk"},"geometry":{"type":"Point","coordinates":[78.46834,30.37491]}},{"type":"Feature","properties":{"name":"Bridge","ref":"","highway":"tertiary"},"geometry":{"type":"Point","coordinates":[78.44346,30.37107]}},{"type":"Feature","properties":{"name":"NH34","ref":"NH34","highway":"trunk"},"geometry":{"type":"Point","coordinates":[78.18529,29.98354]}},{"type":"Feature","properties":{"name":"Bridge","ref":"","highway":"tertiary"},"geometry":{"type":"Point","coordinates":[78.45984,30.20278]}},{"type":"Feature","properties":{"name":"Bridge","ref":"","highway":"tertiary"},"geometry":{"type":"Point","coordinates":[78.48747,30.17902]}},{"type":"Feature","properties":{"name":"Bridge","ref":"","highway":"tertiary"},"geometry":{"type":"Point","coordinates":[78.48879,30.17192]}},{"type":"Feature","properties":{"name":"Bridge","ref":"","highway":"tertiary"},"geometry":{"type":"Point","coordinates":[78.49322,30.15203]}},{"type":"Feature","properties":{"name":"Bridge","ref":"","highway":"secondary"},"geometry":{"type":"Point","coordinates":[78.46331,30.24415]}},{"type":"Feature","properties":{"name":"Bridge","ref":"","highway":"tertiary"},"geometry":{"type":"Point","coordinates":[78.40379,30.24423]}},{"type":"Feature","properties":{"name":"Bridge","ref":"","highway":"tertiary"},"geometry":{"type":"Point","coordinates":[78.39439,30.24113]}},{"type":"Feature","properties":{"name":"Bridge","ref":"","highway":"secondary"},"geometry":{"type":"Point","coordinates":[78.54668,30.19901]}},{"type":"Feature","properties":{"name":"Bridge","ref":"","highway":"tertiary"},"geometry":{"type":"Point","coordinates":[78.37898,30.08915]}},{"type":"Feature","properties":{"name":"Bridge","ref":"","highway":"secondary"},"geometry":{"type":"Point","coordinates":[78.38124,30.08896]}},{"type":"Feature","properties":{"name":"NH7","ref":"NH7","highway":"trunk"},"geometry":{"type":"Point","coordinates":[78.57795,30.11176]}},{"type":"Feature","properties":{"name":"Bridge","ref":"","highway":"tertiary"},"geometry":{"type":"Point","coordinates":[78.50816,30.12532]}},{"type":"Feature","properties":{"name":"Bridge","ref":"","highway":"tertiary"},"geometry":{"type":"Point","coordinates":[78.50441,30.1233]}},{"type":"Feature","properties":{"name":"NH7","ref":"NH7","highway":"trunk"},"geometry":{"type":"Point","coordinates":[78.49427,30.07603]}},{"type":"Feature","properties":{"name":"Bridge","ref":"","highway":"tertiary"},"geometry":{"type":"Point","coordinates":[78.34043,30.14476]}},{"type":"Feature","properties":{"name":"NH7","ref":"NH7","highway":"trunk"},"geometry":{"type":"Point","coordinates":[78.33994,30.1379]}},{"type":"Feature","properties":{"name":"Bridge","ref":"","highway":"tertiary"},"geometry":{"type":"Point","coordinates":[78.46506,30.19329]}},{"type":"Feature","properties":{"name":"NH7","ref":"NH7","highway":"trunk"},"geometry":{"type":"Point","coordinates":[78.39585,30.13839]}},{"type":"Feature","properties":{"name":"NH7","ref":"NH7","highway":"trunk"},"geometry":{"type":"Point","coordinates":[78.43523,30.09502]}},{"type":"Feature","properties":{"name":"Bridge","ref":"","highway":"tertiary"},"geometry":{"type":"Point","coordinates":[78.53921,30.40113]}},{"type":"Feature","properties":{"name":"Bridge","ref":"","highway":"tertiary"},"geometry":{"type":"Point","coordinates":[78.13802,29.92997]}},{"type":"Feature","properties":{"name":"Bridge","ref":"","highway":"secondary"},"geometry":{"type":"Point","coordinates":[78.45054,30.31709]}},{"type":"Feature","properties":{"name":"Bridge","ref":"","highway":"secondary"},"geometry":{"type":"Point","coordinates":[78.44726,30.2893]}},{"type":"Feature","properties":{"name":"NH7","ref":"NH7","highway":"trunk"},"geometry":{"type":"Point","coordinates":[78.45334,30.0712]}},{"type":"Feature","properties":{"name":"NH7","ref":"NH7","highway":"trunk"},"geometry":{"type":"Point","coordinates":[78.43571,30.1143]}},{"type":"Feature","properties":{"name":"NH7","ref":"NH7","highway":"trunk"},"geometry":{"type":"Point","coordinates":[78.64736,30.20891]}},{"type":"Feature","properties":{"name":"NH7","ref":"NH7","highway":"trunk"},"geometry":{"type":"Point","coordinates":[78.63891,30.19797]}},{"type":"Feature","properties":{"name":"NH7","ref":"NH7","highway":"trunk"},"geometry":{"type":"Point","coordinates":[78.62458,30.18311]}},{"type":"Feature","properties":{"name":"NH7","ref":"NH7","highway":"trunk"},"geometry":{"type":"Point","coordinates":[78.61842,30.17955]}},{"type":"Feature","properties":{"name":"NH34","ref":"NH34","highway":"trunk"},"geometry":{"type":"Point","coordinates":[78.17166,29.95207]}},{"type":"Feature","properties":{"name":"NH34","ref":"NH34","highway":"trunk"},"geometry":{"type":"Point","coordinates":[78.17178,29.95201]}},{"type":"Feature","properties":{"name":"Bridge","ref":"","highway":"secondary"},"geometry":{"type":"Point","coordinates":[78.60835,30.40123]}},{"type":"Feature","properties":{"name":"NH34","ref":"NH34","highway":"trunk"},"geometry":{"type":"Point","coordinates":[78.17485,29.90337]}},{"type":"Feature","properties":{"name":"NH34","ref":"NH34","highway":"trunk"},"geometry":{"type":"Point","coordinates":[78.17513,29.90338]}},{"type":"Feature","properties":{"name":"Bridge","ref":"","highway":"tertiary"},"geometry":{"type":"Point","coordinates":[78.64135,30.29781]}},{"type":"Feature","properties":{"name":"Rishikesh Bypass","ref":"","highway":"tertiary"},"geometry":{"type":"Point","coordinates":[78.29996,30.08478]}},{"type":"Feature","properties":{"name":"Bridge","ref":"","highway":"trunk"},"geometry":{"type":"Point","coordinates":[78.16934,29.9413]}},{"type":"Feature","properties":{"name":"Bridge","ref":"","highway":"tertiary"},"geometry":{"type":"Point","coordinates":[78.10185,30.17193]}}]}