{"type":"FeatureCollection","features":[{"type":"Feature","properties":{"name":"Dr. Usha's Nirvana Clinic","kind":"clinic","osmId":3663758312},"geometry":{"type":"Point","coordinates":[78.32177,30.12816]}},{"type":"Feature","properties":{"name":"Dr. Arora's Clinic","kind":"clinic","osmId":3663758313},"geometry":{"type":"Point","coordinates":[78.32242,30.12821]}},{"type":"Feature","properties":{"name":"Ramkrishan Mission Hospital","kind":"hospital","osmId":4037486796},"geometry":{"type":"Point","coordinates":[78.14811,29.93298]}},{"type":"Feature","properties":{"name":"Matrichaya Hospital","kind":"hospital","osmId":4037497456},"geometry":{"type":"Point","coordinates":[78.13659,29.93165]}},{"type":"Feature","properties":{"name":"City Hospital","kind":"hospital","osmId":4037544755},"geometry":{"type":"Point","coordinates":[78.13363,29.93375]}},{"type":"Feature","properties":{"name":"City Hospital","kind":"hospital","osmId":4037544756},"geometry":{"type":"Point","coordinates":[78.13375,29.93344]}},{"type":"Feature","properties":{"name":"Hospital","kind":"hospital","osmId":4129769756},"geometry":{"type":"Point","coordinates":[78.2899,30.1069]}},{"type":"Feature","properties":{"name":"Clinic","kind":"clinic","osmId":4383828294},"geometry":{"type":"Point","coordinates":[78.32992,30.12396]}},{"type":"Feature","properties":{"name":"AIIMS's Blood Bank Rishikesh","kind":"hospital","osmId":6895578193},"geometry":{"type":"Point","coordinates":[78.28613,30.08088]}},{"type":"Feature","properties":{"name":"AIIMS Blood Bank, Rishikesh","kind":"hospital","osmId":6897688071},"geometry":{"type":"Point","coordinates":[78.28648,30.08088]}},{"type":"Feature","properties":{"name":"Ramakrishna Mission Sevashrama, Haridwar","kind":"hospital","osmId":6950595604},"geometry":{"type":"Point","coordinates":[78.14753,29.93259]}},{"type":"Feature","properties":{"name":"Ananya Maternity and Medical Center","kind":"hospital","osmId":6950865497},"geometry":{"type":"Point","coordinates":[78.11775,29.92344]}},{"type":"Feature","properties":{"name":"Chandan Memorial Clinic and Lokpriya Hospital","kind":"clinic","osmId":6951822145},"geometry":{"type":"Point","coordinates":[78.10794,29.92706]}},{"type":"Feature","properties":{"name":"Devbhoomi Hospital","kind":"hospital","osmId":6951884828},"geometry":{"type":"Point","coordinates":[78.13516,29.93168]}},{"type":"Feature","properties":{"name":"CHC Doiwala","kind":"hospital","osmId":6951951139},"geometry":{"type":"Point","coordinates":[78.12321,30.17982]}},{"type":"Feature","properties":{"name":"Shiv Shakti Hospital","kind":"hospital","osmId":6952173379},"geometry":{"type":"Point","coordinates":[78.13881,29.92087]}},{"type":"Feature","properties":{"name":"Ganga Valley Hospital","kind":"hospital","osmId":6953071775},"geometry":{"type":"Point","coordinates":[78.13727,29.92438]}},{"type":"Feature","properties":{"name":"Sondhi Nursing Home","kind":"clinic","osmId":6953276702},"geometry":{"type":"Point","coordinates":[78.11944,29.9242]}},{"type":"Feature","properties":{"name":"Ganga Mata Charitable Eye Hospital and Research Institute","kind":"hospital","osmId":6953276776},"geometry":{"type":"Point","coordinates":[78.19269,29.98924]}},{"type":"Feature","properties":{"name":"Preet Maternity Home And Ent Centre","kind":"clinic","osmId":6953552509},"geometry":{"type":"Point","coordinates":[78.12344,29.92547]}},{"type":"Feature","properties":{"name":"Dr Mehras Nursing Home and Hospital","kind":"hospital","osmId":6953738074},"geometry":{"type":"Point","coordinates":[78.13584,29.93306]}},{"type":"Feature","properties":{"name":"Shed Hospital","kind":"hospital","osmId":6954513193},"geometry":{"type":"Point","coordinates":[78.12955,30.17739]}},{"type":"Feature","properties":{"name":"Government Mela Hospital","kind":"hospital","osmId":6956686342},"geometry":{"type":"Point","coordinates":[78.15782,29.95141]}},{"type":"Feature","properties":{"name":"Neelkanth Netralaya","kind":"clinic","osmId":6957050048},"geometry":{"type":"Point","coordinates":[78.13727,29.9166]}},{"type":"Feature","properties":{"name":"Baurari District Hospital","kind":"hospital","osmId":7127949291},"geometry":{"type":"Point","coordinates":[78.43709,30.38033]}},{"type":"Feature","properties":{"name":"Government Hospital, Chamba","kind":"hospital","osmId":7127949320},"geometry":{"type":"Point","coordinates":[78.39315,30.35173]}},{"type":"Feature","properties":{"name":"Government Hospital, Nakot","kind":"hospital","osmId":7127949332},"geometry":{"type":"Point","coordinates":[78.46742,30.31666]}},{"type":"Feature","properties":{"name":"Mishra Maternity Hospital","kind":"hospital","osmId":7484472631},"geometry":{"type":"Point","coordinates":[78.13713,29.92009]}},{"type":"Feature","properties":{"name":"Maxwell Janjeevan Hospital","kind":"hospital","osmId":7484472645},"geometry":{"type":"Point","coordinates":[78.13634,29.92171]}},{"type":"Feature","properties":{"name":"Daksh Balaji Ortho Hospital","kind":"hospital","osmId":7484472667},"geometry":{"type":"Point","coordinates":[78.14105,29.91856]}},{"type":"Feature","properties":{"name":"Sanjeevani Hospital","kind":"hospital","osmId":7484472671},"geometry":{"type":"Point","coordinates":[78.13683,29.92228]}},{"type":"Feature","properties":{"name":"Shah Clinic","kind":"clinic","osmId":7484472672},"geometry":{"type":"Point","coordinates":[78.13944,29.91869]}},{"type":"Feature","properties":{"name":"Masiha Hospital","kind":"hospital","osmId":7486360402},"geometry":{"type":"Point","coordinates":[78.38961,30.35126]}},{"type":"Feature","properties":{"name":"Hatwal Eye Clinic","kind":"clinic","osmId":7486360440},"geometry":{"type":"Point","coordinates":[78.43811,30.37976]}},{"type":"Feature","properties":{"name":"A B Physiotherpy Centre","kind":"clinic","osmId":7486360458},"geometry":{"type":"Point","coordinates":[78.4396,30.3824]}},{"type":"Feature","properties":{"name":"Max Hospital","kind":"hospital","osmId":7486360460},"geometry":{"type":"Point","coordinates":[78.44215,30.38282]}},{"type":"Feature","properties":{"name":"Amba Clinic","kind":"clinic","osmId":7486360476},"geometry":{"type":"Point","coordinates":[78.39247,30.34531]}},{"type":"Feature","properties":{"name":"Government Hospital, Sabdarkhal","kind":"hospital","osmId":8238940546},"geometry":{"type":"Point","coordinates":[78.63867,30.13143]}},{"type":"Feature","properties":{"name":"Government Hospital, Katghar","kind":"hospital","osmId":8239437776},"geometry":{"type":"Point","coordinates":[78.49278,29.98673]}},{"type":"Feature","properties":{"name":"Government Hospital, Satyon","kind":"hospital","osmId":8265671494},"geometry":{"type":"Point","coordinates":[78.28372,30.37473]}},{"type":"Feature","properties":{"name":"Government Hospital, Madannegi","kind":"hospital","osmId":8268833450},"geometry":{"type":"Point","coordinates":[78.49276,30.40263]}},{"type":"Feature","properties":{"name":"Government Hospital, Bhagirathi Puram","kind":"hospital","osmId":8269148141},"geometry":{"type":"Point","coordinates":[78.47087,30.37923]}},{"type":"Feature","properties":{"name":"Shakti Sansthan","kind":"clinic","osmId":8891542517},"geometry":{"type":"Point","coordinates":[78.13258,29.92602]}},{"type":"Feature","properties":{"name":"Krishna Medical Centre","kind":"clinic","osmId":10012603021},"geometry":{"type":"Point","coordinates":[78.29272,30.10884]}},{"type":"Feature","properties":{"name":"Gurukul Kangri Ayurvedic College & Hospital","kind":"hospital","osmId":11476456750},"geometry":{"type":"Point","coordinates":[78.11942,29.91872]}},{"type":"Feature","properties":{"name":"Rana eye center","kind":"hospital","osmId":11860290763},"geometry":{"type":"Point","coordinates":[78.27361,30.09034]}},{"type":"Feature","properties":{"name":"Neeraj epilepsy clinic","kind":"hospital","osmId":11860352788},"geometry":{"type":"Point","coordinates":[78.28841,30.09879]}},{"type":"Feature","properties":{"name":"Seema dental college and hospital","kind":"hospital","osmId":12049320442},"geometry":{"type":"Point","coordinates":[78.27719,30.0692]}},{"type":"Feature","properties":{"name":"Ayushwaan Multi Speciality Hospital","kind":"hospital","osmId":13152055855},"geometry":{"type":"Point","coordinates":[78.32048,30.12788]}},{"type":"Feature","properties":{"name":"Laxman Jhula Governement Hospital","kind":"hospital","osmId":276374940},"geometry":{"type":"Point","coordinates":[78.3315,30.12882]}},{"type":"Feature","properties":{"name":"S.P.S Government Hospital Rishikesh","kind":"hospital","osmId":742423053},"geometry":{"type":"Point","coordinates":[78.29593,30.10873]}},{"type":"Feature","properties":{"name":"Joshi Surgicial and Maternity Center","kind":"hospital","osmId":742630681},"geometry":{"type":"Point","coordinates":[78.29414,30.1121]}},{"type":"Feature","properties":{"name":"Bharadwaj Hospital and Maternity Home","kind":"hospital","osmId":742634686},"geometry":{"type":"Point","coordinates":[78.28796,30.09814]}},{"type":"Feature","properties":{"name":"Puri Sanjivani Hospital","kind":"hospital","osmId":742849500},"geometry":{"type":"Point","coordinates":[78.29254,30.11432]}},{"type":"Feature","properties":{"name":"Dashmesh Hospital and Sandhu Surgicial Center","kind":"hospital","osmId":742885990},"geometry":{"type":"Point","coordinates":[78.29351,30.11202]}},{"type":"Feature","properties":{"name":"Sri Krishna Sewa Ashram Hospital","kind":"hospital","osmId":743251353},"geometry":{"type":"Point","coordinates":[78.30058,30.10777]}},{"type":"Feature","properties":{"name":"Nirmal Ashram Hospital","kind":"hospital","osmId":743357867},"geometry":{"type":"Point","coordinates":[78.30327,30.10444]}},{"type":"Feature","properties":{"name":"All India Institute of Medical Sciences, Rishikesh","kind":"hospital","osmId":825078065},"geometry":{"type":"Point","coordinates":[78.28403,30.07799]}},{"type":"Feature","properties":{"name":"Himalayan Institute Hospital Trust","kind":"hospital","osmId":981252583},"geometry":{"type":"Point","coordinates":[78.16567,30.19266]}},{"type":"Feature","properties":{"name":"Hospital","kind":"hospital","osmId":981252584},"geometry":{"type":"Point","coordinates":[78.16577,30.19566]}},{"type":"Feature","properties":{"name":"BHEL Hospital","kind":"hospital","osmId":1006239703},"geometry":{"type":"Point","coordinates":[78.11495,29.94833]}},{"type":"Feature","properties":{"name":"School","kind":"school","osmId":1171894758},"geometry":{"type":"Point","coordinates":[78.15788,30.39708]}},{"type":"Feature","properties":{"name":"Drona's College","kind":"college","osmId":1221141460},"geometry":{"type":"Point","coordinates":[78.10433,30.36592]}},{"type":"Feature","properties":{"name":"Uttaranchal College of Science & Technology","kind":"college","osmId":1221681809},"geometry":{"type":"Point","coordinates":[78.10642,30.38274]}},{"type":"Feature","properties":{"name":"Nirmal Gyan Daan","kind":"school","osmId":3325564176},"geometry":{"type":"Point","coordinates":[78.21315,30.06752]}},{"type":"Feature","properties":{"name":"Guru Yog Peeth","kind":"school","osmId":4176770790},"geometry":{"type":"Point","coordinates":[78.3237,30.13063]}},{"type":"Feature","properties":{"name":"Maayaa International Healing School ","kind":"school","osmId":4176780292},"geometry":{"type":"Point","coordinates":[78.32934,30.12374]}},{"type":"Feature","properties":{"name":"World Peace Yoga School","kind":"school","osmId":4498501389},"geometry":{"type":"Point","coordinates":[78.32776,30.12301]}},{"type":"Feature","properties":{"name":"K Farms, 242A, Swargashram.;Yog Sansthan","kind":"school","osmId":4934164496},"geometry":{"type":"Point","coordinates":[78.3172,30.11975]}},{"type":"Feature","properties":{"name":"School","kind":"school","osmId":4984049622},"geometry":{"type":"Point","coordinates":[78.4129,30.15221]}},{"type":"Feature","properties":{"name":"College","kind":"college","osmId":5458205921},"geometry":{"type":"Point","coordinates":[78.46777,30.38374]}},{"type":"Feature","properties":{"name":"Maa Yoga Ashram","kind":"school","osmId":5495632384},"geometry":{"type":"Point","coordinates":[78.32562,30.13136]}},{"type":"Feature","properties":{"name":"Rishikesh Yog Nirvana","kind":"school","osmId":5563553476},"geometry":{"type":"Point","coordinates":[78.32192,30.13318]}},{"type":"Feature","properties":{"name":"vinyasa yogashala school","kind":"school","osmId":5893973685},"geometry":{"type":"Point","coordinates":[78.3205,30.13234]}},{"type":"Feature","properties":{"name":"School","kind":"school","osmId":6152910885},"geometry":{"type":"Point","coordinates":[78.32384,30.12368]}},{"type":"Feature","properties":{"name":"Yogkulam Yoga School","kind":"school","osmId":6273442085},"geometry":{"type":"Point","coordinates":[78.32447,30.12928]}},{"type":"Feature","properties":{"name":"Ayuskama Ayur Yoga School","kind":"school","osmId":6375647986},"geometry":{"type":"Point","coordinates":[78.31491,30.14991]}},{"type":"Feature","properties":{"name":"School","kind":"school","osmId":6390039985},"geometry":{"type":"Point","coordinates":[78.32029,30.12895]}},{"type":"Feature","properties":{"name":"School","kind":"school","osmId":6404653673},"geometry":{"type":"Point","coordinates":[78.34073,30.10543]}},{"type":"Feature","properties":{"name":"School","kind":"school","osmId":6404653674},"geometry":{"type":"Point","coordinates":[78.34073,30.10541]}},{"type":"Feature","properties":{"name":"Vinyasa Yoga Ashram","kind":"school","osmId":6649636590},"geometry":{"type":"Point","coordinates":[78.38327,30.08712]}},{"type":"Feature","properties":{"name":"World peace yoga school","kind":"school","osmId":7276414885},"geometry":{"type":"Point","coordinates":[78.32708,30.1286]}},{"type":"Feature","properties":{"name":"Le Grand International School","kind":"school","osmId":9381729638},"geometry":{"type":"Point","coordinates":[78.20485,30.18516]}},{"type":"Feature","properties":{"name":"AYM Yoga School","kind":"school","osmId":9849512299},"geometry":{"type":"Point","coordinates":[78.31999,30.13241]}},{"type":"Feature","properties":{"name":"World Peace Yoga School","kind":"school","osmId":9860227117},"geometry":{"type":"Point","coordinates":[78.3265,30.12227]}},{"type":"Feature","properties":{"name":"Yoga Essence","kind":"school","osmId":10302061252},"geometry":{"type":"Point","coordinates":[78.32636,30.13051]}},{"type":"Feature","properties":{"name":"Foothills academy","kind":"school","osmId":11860366714},"geometry":{"type":"Point","coordinates":[78.25148,30.07157]}},{"type":"Feature","properties":{"name":"rishikesh yoga teacher training center","kind":"school","osmId":12539452427},"geometry":{"type":"Point","coordinates":[78.32051,30.13291]}},{"type":"Feature","properties":{"name":"Yoga essence ashram","kind":"school","osmId":13153090354},"geometry":{"type":"Point","coordinates":[78.32528,30.12964]}},{"type":"Feature","properties":{"name":"Vinyasa Yogashala","kind":"school","osmId":13359139501},"geometry":{"type":"Point","coordinates":[78.3218,30.13108]}},{"type":"Feature","properties":{"name":"School","kind":"school","osmId":509660788},"geometry":{"type":"Point","coordinates":[78.43164,30.37593]}},{"type":"Feature","properties":{"name":"School","kind":"school","osmId":630600222},"geometry":{"type":"Point","coordinates":[78.24825,30.07304]}},{"type":"Feature","properties":{"name":"School","kind":"school","osmId":683733921},"geometry":{"type":"Point","coordinates":[78.34074,30.10533]}},{"type":"Feature","properties":{"name":"College","kind":"college","osmId":1133268769},"geometry":{"type":"Point","coordinates":[78.14562,29.93863]}},{"type":"Feature","properties":{"name":"College","kind":"college","osmId":1133268770},"geometry":{"type":"Point","coordinates":[78.15035,29.94063]}},{"type":"Feature","properties":{"name":"Dev Sanskriti Vishwavidyalaya (DSVV)","kind":"college","osmId":1152422760},"geometry":{"type":"Point","coordinates":[78.1946,29.99965]}},{"type":"Feature","properties":{"name":"Government Public School, Motichur","kind":"school","osmId":1152422761},"geometry":{"type":"Point","coordinates":[78.19061,30.00345]}},{"type":"Feature","properties":{"name":"Kanya Gurukul","kind":"college","osmId":1236060083},"geometry":{"type":"Point","coordinates":[78.10898,29.91771]}},{"type":"Feature","properties":{"name":"Gurukul Kangri University","kind":"college","osmId":1236065813},"geometry":{"type":"Point","coordinates":[78.1235,29.92077]}},{"type":"Feature","properties":{"name":"Central Sanskrit University","kind":"college","osmId":1301984086},"geometry":{"type":"Point","coordinates":[78.59948,30.14153]}},{"type":"Feature","properties":{"name":"Delhi Public School, Kalagaon,Dehradun","kind":"school","osmId":1422595425},"geometry":{"type":"Point","coordinates":[78.10611,30.36185]}},{"type":"Feature","properties":{"name":"School","kind":"school","osmId":1556362722},"geometry":{"type":"Point","coordinates":[78.11526,30.29924]}}]}