{"type":"FeatureCollection","features":[{"type":"Feature","properties":{"name":"Tehri Reservoir","source":"OpenStreetMap"},"geometry":{"type":"Polygon","coordinates":[[[78.51497,30.37864],[78.51344,30.37792],[78.51223,30.37668],[78.51098,30.37621],[78.50936,30.37642],[78.50835,30.37636],[78.50768,30.37763],[78.50649,30.37848],[78.50461,30.38021],[78.50333,30.38096],[78.50046,30.38051],[78.4972,30.38029],[78.4929,30.38002],[78.48803,30.38085],[78.486,30.38103],[78.48529,30.38189],[78.4842,30.38203],[78.48337,30.38117],[78.48282,30.37992],[78.48215,30.37852],[78.4772,30.37837],[78.47829,30.37978],[78.47723,30.38088],[78.47596,30.38249],[78.4749,30.38321],[78.4749,30.38427],[78.47063,30.38817],[78.46892,30.39008],[78.46642,30.39215],[78.46533,30.39232],[78.4647,30.39329],[78.4641,30.39361],[78.46379,30.39404],[78.46325,30.39514],[78.46252,30.39616],[78.46196,30.39671],[78.46172,30.39688],[78.46201,30.3973],[78.46168,30.39791],[78.46151,30.39896],[78.46153,30.39951],[78.4612,30.40123],[78.46122,30.40177],[78.4606,30.40182],[78.46064,30.40227],[78.46152,30.40264],[78.46188,30.40486],[78.4607,30.40582],[78.45833,30.4076],[78.456,30.41144],[78.45554,30.41306],[78.45568,30.41488],[78.45435,30.41443],[78.45361,30.41327],[78.4517,30.41131],[78.45112,30.41072],[78.45087,30.40904],[78.44971,30.40821],[78.44842,30.40531],[78.44635,30.40414],[78.44541,30.40351],[78.44339,30.40321],[78.44135,30.40347],[78.43916,30.40392],[78.44148,30.40421],[78.44335,30.40419],[78.44468,30.40482],[78.44611,30.40547],[78.44708,30.40575],[78.44766,30.40802],[78.44841,30.40989],[78.44755,30.41234],[78.44955,30.41404],[78.44918,30.41567],[78.45032,30.41532],[78.45058,30.41574],[78.45073,30.41602],[78.45081,30.41622],[78.44927,30.41632],[78.4487,30.41736],[78.45006,30.41783],[78.44703,30.41924],[78.44346,30.42054],[78.44055,30.41934],[78.44046,30.42061],[78.44218,30.4205],[78.43911,30.4217],[78.43439,30.42531],[78.43395,30.42867],[78.43327,30.42917],[78.43221,30.42948],[78.43121,30.42873],[78.42876,30.42712],[78.42713,30.43276],[78.42616,30.43513],[78.42734,30.43627],[78.42754,30.43724],[78.4279,30.43822],[78.42724,30.43996],[78.42651,30.44153],[78.42584,30.44256],[78.42672,30.44272],[78.42709,30.44274],[78.42763,30.44345],[78.42772,30.44382],[78.43048,30.44467],[78.43228,30.44467],[78.43394,30.44499],[78.43664,30.44565],[78.43781,30.44753],[78.43804,30.44846],[78.43705,30.4489],[78.43659,30.44897],[78.43601,30.4488],[78.43552,30.44889],[78.43553,30.44903],[78.43495,30.44891],[78.43458,30.44869],[78.43415,30.44864],[78.43383,30.4484],[78.43277,30.44865],[78.43185,30.44877],[78.43142,30.44898],[78.43116,30.44931],[78.43085,30.44925],[78.43059,30.44924],[78.43005,30.44915],[78.42937,30.44926],[78.42881,30.44941],[78.42847,30.44965],[78.42822,30.44966],[78.42802,30.44974],[78.42774,30.45004],[78.42753,30.45033],[78.42726,30.45073],[78.4269,30.45081],[78.42655,30.45086],[78.42619,30.45086],[78.42606,30.45065],[78.4254,30.45044],[78.42507,30.45032],[78.42476,30.45021],[78.42471,30.45002],[78.42462,30.44971],[78.42429,30.4494],[78.42415,30.44918],[78.42397,30.44923],[78.42391,30.44945],[78.42337,30.4496],[78.42272,30.44969],[78.42222,30.44982],[78.42183,30.44971],[78.42138,30.44964],[78.42098,30.44966],[78.42096,30.44978],[78.42184,30.45014],[78.42243,30.45029],[78.42279,30.45036],[78.42318,30.45064],[78.42351,30.45086],[78.42364,30.45117],[78.42379,30.45127],[78.42398,30.45119],[78.42382,30.45132],[78.42355,30.45141],[78.4234,30.45167],[78.4232,30.45212],[78.42295,30.45233],[78.42294,30.45309],[78.42285,30.45377],[78.42299,30.45417],[78.42326,30.45448],[78.42372,30.45498],[78.42433,30.45552],[78.42462,30.45652],[78.42446,30.45748],[78.42421,30.45828],[78.42423,30.45906],[78.42416,30.4596],[78.42439,30.45992],[78.42488,30.4603],[78.42517,30.46065],[78.4251,30.46131],[78.42536,30.46169],[78.4258,30.46255],[78.42616,30.4632],[78.42594,30.46388],[78.4255,30.46438],[78.42565,30.46506],[78.4254,30.46576],[78.42517,30.46527],[78.42471,30.46481],[78.42362,30.46469],[78.42319,30.46445],[78.42262,30.46407],[78.4224,30.46425],[78.42286,30.46479],[78.4232,30.46524],[78.42396,30.46542],[78.42428,30.46584],[78.42424,30.46644],[78.423,30.46674],[78.42201,30.46722],[78.42163,30.46762],[78.42095,30.46787],[78.41959,30.46826],[78.41865,30.46865],[78.41749,30.4682],[78.4158,30.46753],[78.41502,30.47039],[78.41529,30.47022],[78.41563,30.47034],[78.41595,30.47044],[78.41637,30.47057],[78.41731,30.47082],[78.41787,30.47097],[78.41852,30.47117],[78.41917,30.47121],[78.41987,30.47109],[78.42092,30.47109],[78.4218,30.47104],[78.42248,30.47099],[78.42301,30.47083],[78.42336,30.47058],[78.42366,30.47038],[78.42435,30.47017],[78.42489,30.46969],[78.42531,30.46943],[78.42601,30.469],[78.42643,30.4686],[78.42721,30.46829],[78.42772,30.46758],[78.42823,30.46649],[78.42899,30.46575],[78.42897,30.46502],[78.42954,30.46398],[78.42909,30.46281],[78.42872,30.46185],[78.42829,30.46129],[78.42807,30.46023],[78.42798,30.45843],[78.42803,30.45669],[78.42825,30.45612],[78.42776,30.45504],[78.42821,30.45443],[78.42934,30.4544],[78.43038,30.45359],[78.43306,30.45312],[78.43551,30.45253],[78.43654,30.45222],[78.43768,30.45232],[78.43868,30.45224],[78.43963,30.4521],[78.44016,30.45241],[78.44061,30.45188],[78.44116,30.45138],[78.44147,30.45042],[78.44132,30.44855],[78.44163,30.44798],[78.44167,30.44663],[78.44158,30.44611],[78.44124,30.44556],[78.4412,30.44477],[78.441,30.44423],[78.44044,30.44384],[78.43943,30.44345],[78.43846,30.44191],[78.43828,30.44141],[78.43949,30.44097],[78.44133,30.44075],[78.44284,30.44083],[78.44326,30.43959],[78.44378,30.43807],[78.44368,30.43601],[78.4445,30.4353],[78.44513,30.43643],[78.44704,30.43702],[78.44737,30.43654],[78.44881,30.43834],[78.44882,30.43905],[78.44921,30.43866],[78.44937,30.43806],[78.45038,30.43563],[78.45382,30.4329],[78.45549,30.43471],[78.45536,30.43256],[78.45787,30.4306],[78.45998,30.43049],[78.46077,30.4279],[78.46272,30.42757],[78.46442,30.42709],[78.46397,30.42557],[78.46654,30.42352],[78.46901,30.42242],[78.4689,30.42074],[78.47156,30.41759],[78.47487,30.41808],[78.47433,30.41487],[78.47523,30.41344],[78.47646,30.41117],[78.47769,30.40834],[78.47804,30.40782],[78.47922,30.40826],[78.48045,30.40872],[78.48093,30.40891],[78.48163,30.40939],[78.48186,30.40902],[78.48145,30.40873],[78.48125,30.40827],[78.48105,30.40765],[78.48092,30.40725],[78.48065,30.40687],[78.48052,30.40663],[78.48029,30.40614],[78.47955,30.40571],[78.47924,30.40473],[78.4791,30.40319],[78.47886,30.40286],[78.47913,30.40211],[78.47956,30.40204],[78.47993,30.40213],[78.48035,30.40187],[78.48042,30.40138],[78.48082,30.40085],[78.48128,30.40102],[78.48162,30.40055],[78.48231,30.40052],[78.48276,30.40104],[78.48309,30.40135],[78.48366,30.40139],[78.48413,30.4009],[78.48478,30.40071],[78.48566,30.40035],[78.48644,30.39968],[78.4869,30.39925],[78.48705,30.39945],[78.48776,30.39985],[78.48854,30.40019],[78.48892,30.39967],[78.4891,30.399],[78.48904,30.39842],[78.48843,30.39653],[78.48823,30.39585],[78.48791,30.39507],[78.4878,30.3948],[78.48765,30.39438],[78.48804,30.39377],[78.48849,30.39387],[78.48878,30.39376],[78.48972,30.39345],[78.49019,30.39371],[78.49051,30.39373],[78.49112,30.3926],[78.49075,30.39187],[78.49107,30.3914],[78.49164,30.39129],[78.49183,30.39141],[78.49213,30.39078],[78.49235,30.39025],[78.49252,30.38957],[78.49221,30.38878],[78.49157,30.38817],[78.49155,30.38786],[78.49172,30.38703],[78.49163,30.38626],[78.49211,30.38668],[78.49308,30.38705],[78.4934,30.38733],[78.49353,30.38792],[78.49357,30.38852],[78.49403,30.38899],[78.49425,30.38906],[78.4944,30.38974],[78.49433,30.3902],[78.49455,30.39079],[78.49439,30.39186],[78.4945,30.39257],[78.4955,30.39179],[78.49594,30.3916],[78.49623,30.39113],[78.49605,30.39061],[78.49611,30.38962],[78.49537,30.38811],[78.49515,30.38748],[78.49543,30.38663],[78.49632,30.38585],[78.49695,30.38589],[78.49767,30.38624],[78.49841,30.38671],[78.49912,30.38696],[78.49951,30.38791],[78.50013,30.38805],[78.5004,30.38875],[78.50117,30.38927],[78.50228,30.3896],[78.50294,30.39011],[78.50261,30.39068],[78.50373,30.39204],[78.50499,30.39169],[78.50521,30.39062],[78.50541,30.38977],[78.507,30.38978],[78.50875,30.38834],[78.50863,30.38755],[78.50934,30.38653],[78.51005,30.38572],[78.51111,30.3853],[78.51184,30.38421],[78.51265,30.38381],[78.51356,30.38365],[78.51441,30.38399],[78.51462,30.38429],[78.51517,30.38415],[78.51598,30.38457],[78.51634,30.38475],[78.51679,30.38467],[78.51781,30.38455],[78.51836,30.38517],[78.5186,30.38522],[78.51951,30.38546],[78.52035,30.38566],[78.52113,30.38541],[78.52171,30.38584],[78.52203,30.38595],[78.52249,30.38572],[78.52311,30.38503],[78.52392,30.38537],[78.52416,30.38556],[78.52459,30.38589],[78.52497,30.38639],[78.52541,30.38576],[78.52552,30.38545],[78.52564,30.38479],[78.52578,30.38401],[78.52627,30.38329],[78.52727,30.38276],[78.52838,30.38167],[78.52895,30.38115],[78.52922,30.38053],[78.52995,30.3801],[78.5307,30.37987],[78.53137,30.37949],[78.53244,30.37909],[78.53376,30.37906],[78.53481,30.37916],[78.53551,30.37938],[78.53581,30.37956],[78.53624,30.37976],[78.53651,30.37947],[78.53698,30.37907],[78.53747,30.37885],[78.53823,30.37907],[78.53867,30.37888],[78.53891,30.37866],[78.53893,30.37831],[78.53865,30.37805],[78.5388,30.37767],[78.539,30.37735],[78.53946,30.37706],[78.54028,30.37706],[78.54024,30.37672],[78.54138,30.37587],[78.54304,30.3746],[78.54438,30.37366],[78.54574,30.37334],[78.54663,30.37272],[78.54701,30.37236],[78.54766,30.37251],[78.54857,30.37195],[78.54886,30.37182],[78.54922,30.37194],[78.54962,30.37188],[78.5499,30.37157],[78.55069,30.37113],[78.55191,30.37123],[78.55241,30.37181],[78.55295,30.37239],[78.55327,30.37313],[78.55422,30.37382],[78.55442,30.37468],[78.55355,30.37541],[78.55328,30.37606],[78.55351,30.37668],[78.55351,30.37717],[78.55362,30.37786],[78.55389,30.37826],[78.55415,30.37835],[78.55405,30.37742],[78.55435,30.37709],[78.5545,30.37661],[78.55436,30.37638],[78.55582,30.37533],[78.55666,30.37523],[78.55787,30.37545],[78.55812,30.37548],[78.5584,30.37569],[78.55875,30.37584],[78.56061,30.37568],[78.5612,30.37608],[78.5624,30.37505],[78.56289,30.37516],[78.56374,30.37506],[78.56436,30.37489],[78.56526,30.37495],[78.56571,30.37535],[78.56589,30.37647],[78.56678,30.37632],[78.56727,30.37656],[78.56773,30.37663],[78.56969,30.37673],[78.57115,30.37691],[78.57271,30.37676],[78.57411,30.376],[78.57484,30.37596],[78.57537,30.37597],[78.57712,30.37572],[78.57739,30.37598],[78.5776,30.37644],[78.57765,30.37751],[78.57739,30.37819],[78.57768,30.37873],[78.57787,30.37896],[78.57761,30.37954],[78.57665,30.38008],[78.57672,30.38037],[78.5771,30.38036],[78.57706,30.38065],[78.57775,30.38049],[78.57833,30.38051],[78.57886,30.38024],[78.57961,30.37991],[78.5803,30.37991],[78.58074,30.38015],[78.58177,30.38028],[78.58268,30.38041],[78.58342,30.38057],[78.58407,30.38072],[78.58484,30.38086],[78.58554,30.38078],[78.58597,30.38069],[78.58647,30.38099],[78.58696,30.38134],[78.58766,30.3818],[78.58808,30.38221],[78.58845,30.38262],[78.58864,30.38296],[78.58813,30.38339],[78.58764,30.38359],[78.58731,30.38409],[78.58703,30.38438],[78.5867,30.38485],[78.58658,30.38525],[78.5867,30.38566],[78.5865,30.386],[78.58654,30.38622],[78.58669,30.38686],[78.58671,30.38722],[78.58697,30.38741],[78.58714,30.38795],[78.58698,30.38836],[78.58694,30.3887],[78.58697,30.38906],[78.58724,30.3893],[78.58741,30.38962],[78.58766,30.39],[78.58806,30.39039],[78.58847,30.3908],[78.5887,30.39108],[78.58894,30.39126],[78.58942,30.39144],[78.59021,30.3918],[78.59062,30.39224],[78.59093,30.39256],[78.5913,30.39275],[78.59139,30.39317],[78.59094,30.3935],[78.59051,30.39361],[78.58993,30.39395],[78.59002,30.39401],[78.59077,30.39381],[78.59135,30.39373],[78.59155,30.39415],[78.59151,30.39472],[78.59152,30.39523],[78.59152,30.39553],[78.59098,30.39558],[78.59078,30.39584],[78.59077,30.3963],[78.59031,30.39652],[78.59017,30.39708],[78.59109,30.39789],[78.59166,30.39813],[78.59226,30.39834],[78.59318,30.39879],[78.59369,30.39883],[78.59414,30.39901],[78.5946,30.3991],[78.59501,30.39916],[78.59521,30.39935],[78.59576,30.39944],[78.59606,30.39943],[78.59693,30.39948],[78.59743,30.3994],[78.59822,30.39953],[78.59854,30.39974],[78.59892,30.39993],[78.59924,30.40016],[78.59963,30.40059],[78.60004,30.40117],[78.60026,30.40167],[78.60032,30.40219],[78.60022,30.40248],[78.60017,30.40285],[78.60025,30.4032],[78.60026,30.40362],[78.60001,30.40386],[78.59987,30.40425],[78.59994,30.40452],[78.60009,30.40507],[78.60005,30.4054],[78.59964,30.40604],[78.59958,30.40697],[78.59961,30.4073],[78.59967,30.40788],[78.59927,30.40823],[78.59842,30.40873],[78.59825,30.40916],[78.59829,30.40965],[78.59822,30.41008],[78.59854,30.41005],[78.59865,30.40975],[78.5989,30.40927],[78.59937,30.40912],[78.59997,30.40901],[78.60041,30.40864],[78.60077,30.40768],[78.60078,30.40735],[78.60105,30.40695],[78.60144,30.40635],[78.60188,30.40585],[78.60208,30.40535],[78.60211,30.40488],[78.60243,30.40474],[78.60337,30.40523],[78.60368,30.40561],[78.60396,30.40581],[78.6051,30.406],[78.60601,30.40615],[78.60665,30.40638],[78.60767,30.40651],[78.60863,30.4068],[78.60946,30.40727],[78.60986,30.40758],[78.6102,30.40802],[78.61124,30.40927],[78.61174,30.40948],[78.61208,30.41012],[78.61239,30.41056],[78.61257,30.41099],[78.61275,30.4116],[78.6128,30.412],[78.61326,30.41312],[78.61329,30.41397],[78.61348,30.41427],[78.61432,30.41499],[78.61462,30.41558],[78.61511,30.41612],[78.61558,30.41649],[78.61635,30.41672],[78.61701,30.41671],[78.6177,30.41669],[78.61868,30.41655],[78.61952,30.4163],[78.62011,30.4164],[78.62037,30.41667],[78.62094,30.41672],[78.62128,30.41661],[78.6216,30.41689],[78.62162,30.41717],[78.62148,30.41741],[78.62174,30.41746],[78.62204,30.41721],[78.62246,30.41684],[78.62315,30.41684],[78.62363,30.41705],[78.62405,30.41724],[78.62448,30.41738],[78.62504,30.41726],[78.62566,30.41716],[78.62623,30.41734],[78.62688,30.41724],[78.62747,30.41693],[78.6284,30.41678],[78.62961,30.41705],[78.63048,30.41712],[78.63141,30.41766],[78.63175,30.41817],[78.63214,30.41876],[78.63252,30.41933],[78.63311,30.41968],[78.63351,30.41958],[78.63463,30.41917],[78.63515,30.41886],[78.63583,30.4186],[78.63662,30.41855],[78.63723,30.4185],[78.63773,30.41903],[78.63782,30.41952],[78.63753,30.42],[78.63737,30.42064],[78.6376,30.42126],[78.63818,30.42217],[78.63874,30.42274],[78.63898,30.4231],[78.63895,30.42376],[78.63858,30.42464],[78.63845,30.42532],[78.63852,30.42593],[78.63891,30.42681],[78.63931,30.42742],[78.63906,30.42806],[78.63873,30.42868],[78.6385,30.42906],[78.63803,30.42954],[78.63773,30.43043],[78.63764,30.43095],[78.63783,30.43191],[78.6383,30.43275],[78.63863,30.43313],[78.63847,30.43233],[78.63826,30.43179],[78.63817,30.43122],[78.63833,30.43055],[78.63869,30.42969],[78.63906,30.42911],[78.63969,30.42857],[78.64011,30.42826],[78.64079,30.42908],[78.64143,30.42947],[78.64251,30.43001],[78.64345,30.4302],[78.64422,30.42997],[78.64496,30.42954],[78.64524,30.42892],[78.6456,30.42842],[78.64518,30.42848],[78.64457,30.42904],[78.64369,30.42954],[78.64298,30.42951],[78.6426,30.4292],[78.64195,30.42887],[78.64074,30.42824],[78.64054,30.42781],[78.64002,30.42697],[78.63992,30.42607],[78.63979,30.42541],[78.63972,30.42465],[78.63975,30.42423],[78.63999,30.42363],[78.6398,30.42292],[78.63944,30.42225],[78.63955,30.42144],[78.63953,30.42065],[78.63963,30.4195],[78.64016,30.41911],[78.64025,30.41869],[78.64002,30.4185],[78.63938,30.41878],[78.63918,30.41838],[78.63865,30.41803],[78.63785,30.41757],[78.6368,30.41718],[78.63574,30.41687],[78.63517,30.41663],[78.63437,30.41635],[78.63367,30.41628],[78.63259,30.41612],[78.63194,30.41585],[78.63097,30.41545],[78.62918,30.41512],[78.62619,30.41536],[78.62435,30.41522],[78.62301,30.41504],[78.6213,30.41457],[78.61981,30.41449],[78.61901,30.41455],[78.6185,30.41471],[78.61776,30.4146],[78.61743,30.41467],[78.61697,30.41459],[78.61619,30.41433],[78.61513,30.41348],[78.61484,30.41294],[78.61475,30.4123],[78.61464,30.41145],[78.61453,30.41087],[78.61478,30.41018],[78.61434,30.40908],[78.6144,30.40846],[78.61397,30.40882],[78.61337,30.40846],[78.61278,30.40791],[78.61211,30.4071],[78.61118,30.40611],[78.61075,30.40558],[78.60928,30.40512],[78.60778,30.40488],[78.60594,30.40432],[78.60463,30.40368],[78.60413,30.40313],[78.60462,30.40254],[78.605,30.40219],[78.60482,30.40211],[78.60418,30.40223],[78.60358,30.40233],[78.60319,30.4018],[78.60312,30.40121],[78.60304,30.40072],[78.60336,30.40018],[78.60343,30.39946],[78.60311,30.39877],[78.60277,30.39843],[78.60285,30.39793],[78.60319,30.39758],[78.60232,30.39763],[78.60165,30.39775],[78.60076,30.39724],[78.5999,30.39703],[78.59892,30.39676],[78.59841,30.39651],[78.59792,30.39661],[78.59693,30.39648],[78.59614,30.39645],[78.59528,30.39678],[78.59418,30.39594],[78.59401,30.39464],[78.59438,30.39408],[78.59416,30.39354],[78.59386,30.39272],[78.59407,30.39209],[78.59379,30.3914],[78.59331,30.39098],[78.5929,30.39051],[78.59236,30.39029],[78.59171,30.38964],[78.59161,30.38886],[78.59113,30.38821],[78.59085,30.38768],[78.59116,30.38689],[78.59156,30.38625],[78.59182,30.38587],[78.59212,30.38563],[78.592,30.38521],[78.59257,30.38468],[78.59354,30.38463],[78.59353,30.38438],[78.59323,30.38406],[78.59268,30.38386],[78.59266,30.38323],[78.59298,30.38295],[78.59287,30.38239],[78.5928,30.382],[78.59266,30.38134],[78.59243,30.38116],[78.59185,30.3806],[78.5916,30.38002],[78.59114,30.37986],[78.59088,30.37964],[78.59023,30.3791],[78.58979,30.37859],[78.58887,30.37829],[78.58832,30.3778],[78.58746,30.37736],[78.58705,30.37708],[78.58733,30.37661],[78.58777,30.37626],[78.58812,30.37561],[78.58848,30.37519],[78.58849,30.37455],[78.5884,30.3743],[78.58819,30.37446],[78.5882,30.37471],[78.58825,30.37506],[78.58786,30.37517],[78.58724,30.37534],[78.58673,30.37521],[78.58624,30.37502],[78.58571,30.37509],[78.58529,30.37441],[78.58465,30.37405],[78.58421,30.37379],[78.58333,30.37362],[78.58204,30.37311],[78.58081,30.37276],[78.58038,30.37269],[78.57935,30.37237],[78.57852,30.37242],[78.57763,30.37206],[78.57687,30.37187],[78.57625,30.37145],[78.57555,30.3712],[78.57491,30.37116],[78.57385,30.37117],[78.57356,30.37144],[78.57233,30.37151],[78.57268,30.37047],[78.57297,30.36983],[78.57281,30.36966],[78.57219,30.37022],[78.57146,30.37069],[78.57018,30.37116],[78.5695,30.37204],[78.5693,30.3726],[78.56831,30.37342],[78.5673,30.37327],[78.56675,30.37262],[78.56623,30.3725],[78.56587,30.37261],[78.56554,30.37227],[78.56506,30.37206],[78.56491,30.37167],[78.56469,30.37146],[78.56389,30.37151],[78.56317,30.37128],[78.56233,30.37141],[78.56068,30.37164],[78.55961,30.37173],[78.5586,30.37181],[78.55736,30.37178],[78.55667,30.37174],[78.55677,30.37128],[78.55685,30.37062],[78.55614,30.36994],[78.55541,30.36952],[78.55525,30.369],[78.55512,30.36846],[78.555,30.36792],[78.55473,30.36783],[78.55394,30.36772],[78.55408,30.36671],[78.55448,30.36587],[78.55512,30.36491],[78.55467,30.36464],[78.55433,30.36447],[78.5539,30.36388],[78.55381,30.36314],[78.5531,30.36248],[78.55313,30.36181],[78.55283,30.36093],[78.55248,30.36082],[78.5523,30.36205],[78.55242,30.363],[78.55245,30.36362],[78.55232,30.36442],[78.5518,30.36466],[78.55133,30.36444],[78.55059,30.36443],[78.54987,30.36406],[78.54886,30.36397],[78.54809,30.36397],[78.54771,30.3642],[78.54681,30.36441],[78.54595,30.36418],[78.54539,30.36414],[78.5449,30.36402],[78.54449,30.36461],[78.54373,30.36436],[78.54343,30.36428],[78.54321,30.36491],[78.54288,30.36542],[78.54207,30.36614],[78.54127,30.36648],[78.54107,30.36684],[78.54081,30.36709],[78.54037,30.36737],[78.54007,30.36771],[78.53982,30.36774],[78.53967,30.36809],[78.53948,30.36846],[78.53906,30.36866],[78.53826,30.36889],[78.53766,30.36923],[78.53735,30.36915],[78.53739,30.36875],[78.53737,30.36831],[78.53715,30.36803],[78.53665,30.36776],[78.53645,30.36766],[78.5366,30.36797],[78.53687,30.36845],[78.53681,30.36867],[78.53652,30.36918],[78.53646,30.36986],[78.53654,30.37004],[78.53694,30.37049],[78.53676,30.37116],[78.53628,30.37151],[78.53561,30.37161],[78.53476,30.37174],[78.53345,30.37163],[78.53263,30.37211],[78.53209,30.37208],[78.53178,30.37214],[78.53093,30.37275],[78.53002,30.37301],[78.5293,30.37309],[78.52806,30.37289],[78.52771,30.37325],[78.52765,30.37412],[78.5269,30.37468],[78.52592,30.37535],[78.52454,30.37555],[78.52444,30.3763],[78.52445,30.37685],[78.52442,30.3773],[78.5243,30.37845],[78.52375,30.37895],[78.52268,30.37942],[78.52116,30.37956],[78.52067,30.3795],[78.51969,30.37933],[78.51909,30.37941],[78.51833,30.37965],[78.51748,30.37902],[78.51712,30.37883],[78.51661,30.37881],[78.51578,30.37886],[78.51497,30.37864]]]}}]}