{"type":"FeatureCollection","features":[{"type":"Feature","properties":{"name":"Bhagirathi – Ganga (Tehri Dam → Haridwar)","lengthKm":129.09,"source":"OpenStreetMap","role":"reach"},"geometry":{"type":"LineString","coordinates":[[78.4789,30.37986],[78.47819,30.37922],[78.4777,30.37866],[78.47745,30.37805],[78.47671,30.3732],[78.47639,30.37097],[78.47633,30.37047],[78.47637,30.37016],[78.47658,30.36968],[78.47708,30.3692],[78.47765,30.36869],[78.47831,30.36821],[78.47951,30.36745],[78.48083,30.36651],[78.48161,30.36584],[78.48175,30.36518],[78.48178,30.36458],[78.48183,30.36377],[78.48204,30.363],[78.48228,30.36239],[78.4829,30.36163],[78.4834,30.36117],[78.48356,30.36077],[78.48322,30.36032],[78.48266,30.35932],[78.48215,30.35821],[78.4821,30.35753],[78.48227,30.35703],[78.48307,30.3568],[78.48548,30.35651],[78.48644,30.35617],[78.48674,30.35539],[78.4861,30.35386],[78.48471,30.3524],[78.48374,30.35065],[78.48288,30.34918],[78.48197,30.3479],[78.48165,30.34688],[78.48203,30.34593],[78.48217,30.34525],[78.4824,30.34434],[78.48318,30.34349],[78.4845,30.34218],[78.48514,30.34125],[78.48656,30.33941],[78.48691,30.33891],[78.48734,30.33795],[78.48781,30.33691],[78.48792,30.33569],[78.48743,30.33502],[78.48719,30.33428],[78.48704,30.33301],[78.48712,30.33235],[78.48749,30.3315],[78.48829,30.33049],[78.48909,30.32982],[78.48932,30.32956],[78.4893,30.32902],[78.48902,30.32717],[78.48889,30.32564],[78.48887,30.32438],[78.48865,30.32274],[78.48901,30.32159],[78.48946,30.32084],[78.48895,30.31978],[78.48853,30.31909],[78.48803,30.3181],[78.48821,30.31726],[78.48841,30.31615],[78.48874,30.31533],[78.48955,30.31432],[78.49125,30.31301],[78.49172,30.31241],[78.49155,30.31194],[78.49196,30.3108],[78.49302,30.30863],[78.49434,30.30536],[78.49431,30.30499],[78.49381,30.30458],[78.49339,30.30396],[78.49325,30.30304],[78.49339,30.30209],[78.49289,30.30157],[78.49193,30.30104],[78.49112,30.30013],[78.49081,30.29918],[78.49053,30.2982],[78.49061,30.29761],[78.49107,30.29718],[78.4917,30.29699],[78.49407,30.29731],[78.49611,30.29716],[78.49692,30.29669],[78.49671,30.29555],[78.4968,30.29443],[78.49662,30.29406],[78.49623,30.29364],[78.49557,30.29328],[78.49471,30.29281],[78.49332,30.29186],[78.49174,30.29091],[78.49048,30.29034],[78.48861,30.28959],[78.48637,30.28934],[78.48448,30.28872],[78.48307,30.28771],[78.4825,30.28694],[78.48232,30.28572],[78.4826,30.28439],[78.48283,30.28364],[78.48329,30.28312],[78.48491,30.2826],[78.48654,30.28287],[78.48793,30.28393],[78.48905,30.28434],[78.48986,30.28406],[78.49117,30.28324],[78.49366,30.28231],[78.49525,30.28224],[78.49606,30.28184],[78.49645,30.28114],[78.49641,30.28014],[78.49481,30.27896],[78.49244,30.27727],[78.49055,30.27319],[78.48982,30.27002],[78.49109,30.26659],[78.49298,30.26407],[78.49354,30.26275],[78.49435,30.26022],[78.49486,30.25948],[78.49606,30.25948],[78.49688,30.25983],[78.49711,30.26002],[78.49805,30.2608],[78.50073,30.26309],[78.50208,30.26469],[78.50341,30.266],[78.50448,30.26645],[78.50556,30.26627],[78.50612,30.26543],[78.50688,30.26422],[78.50756,30.26325],[78.50783,30.26183],[78.50814,30.26021],[78.50844,30.25921],[78.50845,30.25747],[78.50872,30.25588],[78.50883,30.25484],[78.50915,30.25389],[78.50979,30.25331],[78.50978,30.25252],[78.50993,30.25125],[78.51052,30.2502],[78.5117,30.2495],[78.5137,30.24836],[78.51565,30.24781],[78.51922,30.2477],[78.52143,30.24758],[78.52309,30.24752],[78.52382,30.24803],[78.52424,30.24874],[78.52437,30.24939],[78.52398,30.25051],[78.52382,30.25105],[78.52289,30.25219],[78.52289,30.25309],[78.52362,30.25361],[78.52472,30.25386],[78.52568,30.25383],[78.52618,30.25347],[78.52625,30.25294],[78.52561,30.25224],[78.52534,30.25155],[78.5256,30.25111],[78.52622,30.25082],[78.52742,30.2503],[78.52803,30.24977],[78.52851,30.24895],[78.52913,30.24808],[78.52942,30.24698],[78.53021,30.24633],[78.53116,30.24569],[78.53341,30.24459],[78.53448,30.24362],[78.5348,30.24281],[78.53538,30.24169],[78.53573,30.24102],[78.53598,30.24024],[78.53603,30.23912],[78.53619,30.23785],[78.53704,30.23734],[78.53749,30.23672],[78.53794,30.23643],[78.53912,30.236],[78.54083,30.2354],[78.54258,30.23509],[78.54383,30.23533],[78.54414,30.23542],[78.54602,30.23516],[78.54688,30.23495],[78.54723,30.23493],[78.54813,30.23458],[78.54902,30.23456],[78.55081,30.23393],[78.55407,30.23346],[78.55546,30.23263],[78.55624,30.23164],[78.55662,30.23066],[78.55675,30.22991],[78.55688,30.2292],[78.55688,30.22916],[78.55744,30.22807],[78.55757,30.22782],[78.5578,30.22713],[78.55838,30.22663],[78.55941,30.22596],[78.55984,30.22573],[78.56071,30.22547],[78.56135,30.22524],[78.56216,30.22477],[78.56256,30.22425],[78.5629,30.22333],[78.5629,30.22247],[78.56287,30.22062],[78.56307,30.21874],[78.56301,30.21769],[78.56246,30.21595],[78.56106,30.2143],[78.55941,30.21306],[78.55866,30.21232],[78.55842,30.21166],[78.55846,30.21043],[78.55971,30.20682],[78.56044,30.20497],[78.56099,30.20332],[78.56137,30.20191],[78.56209,30.20108],[78.56232,30.20082],[78.56322,30.19971],[78.56433,30.19877],[78.56524,30.19837],[78.56899,30.19734],[78.57134,30.19658],[78.57286,30.1959],[78.57379,30.19533],[78.57475,30.19456],[78.57572,30.19364],[78.57676,30.19306],[78.57713,30.19283],[78.57738,30.1924],[78.57745,30.19187],[78.57766,30.19164],[78.57867,30.19149],[78.57984,30.19154],[78.58083,30.1916],[78.58212,30.1917],[78.58275,30.19162],[78.58302,30.19112],[78.58331,30.19042],[78.58398,30.19021],[78.5843,30.18984],[78.58451,30.18962],[78.58488,30.18869],[78.58497,30.18838],[78.58514,30.18785],[78.58531,30.18612],[78.58604,30.18335],[78.58663,30.18153],[78.58691,30.18028],[78.587,30.17906],[78.58752,30.17782],[78.5885,30.17669],[78.5903,30.17526],[78.59107,30.17451],[78.59175,30.17354],[78.59271,30.17297],[78.59597,30.17181],[78.5971,30.17085],[78.598,30.16999],[78.59883,30.16893],[78.59988,30.16787],[78.6002,30.167],[78.60011,30.16587],[78.59998,30.16519],[78.59957,30.16449],[78.59943,30.16369],[78.59976,30.16263],[78.60036,30.16154],[78.60114,30.16044],[78.60165,30.15951],[78.60188,30.15872],[78.6018,30.1576],[78.60182,30.15643],[78.60171,30.15528],[78.60159,30.1543],[78.60086,30.15304],[78.60025,30.15196],[78.59915,30.15142],[78.59855,30.15063],[78.59787,30.14909],[78.59783,30.14767],[78.59759,30.14551],[78.5975,30.14509],[78.59731,30.14461],[78.59715,30.14417],[78.59699,30.14363],[78.5969,30.1432],[78.59685,30.14281],[78.59667,30.14066],[78.5963,30.13687],[78.59615,30.13579],[78.59608,30.13536],[78.59596,30.13487],[78.59582,30.13438],[78.59572,30.13405],[78.5957,30.13366],[78.59575,30.13164],[78.59584,30.13117],[78.59603,30.13079],[78.59623,30.13052],[78.5965,30.13025],[78.59677,30.13006],[78.59769,30.12962],[78.59951,30.12885],[78.60005,30.12858],[78.60058,30.12824],[78.60084,30.12798],[78.60104,30.12771],[78.60115,30.12746],[78.6012,30.12726],[78.60118,30.12705],[78.60106,30.12681],[78.60081,30.12645],[78.60039,30.12598],[78.59997,30.12555],[78.59956,30.12521],[78.59902,30.12484],[78.59849,30.12453],[78.59806,30.12432],[78.59762,30.12415],[78.5969,30.12395],[78.59484,30.12351],[78.5941,30.12337],[78.59336,30.1233],[78.59193,30.12319],[78.59083,30.1231],[78.59031,30.12303],[78.58973,30.12292],[78.58887,30.12273],[78.58838,30.1226],[78.58798,30.12243],[78.58755,30.12223],[78.5873,30.12209],[78.58701,30.12189],[78.58684,30.12168],[78.58673,30.12145],[78.58666,30.12118],[78.5866,30.12078],[78.58656,30.12045],[78.58649,30.1199],[78.58646,30.11964],[78.58641,30.11918],[78.58642,30.11879],[78.58645,30.1185],[78.58652,30.11815],[78.58661,30.11779],[78.58675,30.11734],[78.58691,30.11686],[78.58707,30.11645],[78.58736,30.11582],[78.58843,30.1139],[78.5887,30.11332],[78.5889,30.11286],[78.58896,30.11264],[78.589,30.11241],[78.58904,30.11194],[78.58904,30.11154],[78.58903,30.111],[78.589,30.11055],[78.58895,30.11012],[78.58884,30.10939],[78.58873,30.10881],[78.58858,30.10833],[78.58832,30.1077],[78.58738,30.10573],[78.58719,30.10534],[78.58705,30.10515],[78.58683,30.10496],[78.58655,30.10482],[78.58628,30.10473],[78.58596,30.10467],[78.58576,30.10466],[78.58551,30.10466],[78.58518,30.10473],[78.58407,30.10521],[78.58331,30.10552],[78.58263,30.1057],[78.58214,30.10576],[78.58158,30.10571],[78.58103,30.10556],[78.58044,30.10527],[78.57993,30.10494],[78.5796,30.10466],[78.57929,30.10427],[78.57916,30.10396],[78.57912,30.10359],[78.57916,30.10319],[78.57935,30.10216],[78.57953,30.10142],[78.57967,30.10106],[78.57985,30.10072],[78.58018,30.10026],[78.58098,30.0993],[78.5843,30.09565],[78.58646,30.09329],[78.58777,30.09192],[78.58974,30.08999],[78.59143,30.0883],[78.59177,30.08786],[78.59196,30.08745],[78.59216,30.08691],[78.59227,30.08633],[78.59229,30.08586],[78.59225,30.08537],[78.59216,30.08491],[78.59198,30.08449],[78.59171,30.08408],[78.59133,30.0837],[78.58913,30.08198],[78.58778,30.08085],[78.58566,30.07885],[78.58492,30.07811],[78.58442,30.07751],[78.58365,30.07645],[78.58308,30.07563],[78.58275,30.07507],[78.58253,30.07453],[78.58242,30.07405],[78.5824,30.07353],[78.5824,30.07301],[78.58246,30.07257],[78.5826,30.07209],[78.58281,30.07172],[78.58307,30.0715],[78.58347,30.07137],[78.58396,30.07131],[78.58441,30.07136],[78.58485,30.07149],[78.58564,30.07187],[78.58614,30.07206],[78.58676,30.07217],[78.58754,30.07224],[78.58835,30.07224],[78.58925,30.07213],[78.59041,30.07183],[78.59255,30.07113],[78.59341,30.07084],[78.59436,30.07059],[78.59547,30.07037],[78.59921,30.06976],[78.59997,30.06961],[78.60033,30.0695],[78.60072,30.06935],[78.60118,30.06913],[78.60157,30.06888],[78.60193,30.06856],[78.60222,30.06823],[78.60241,30.06791],[78.6025,30.06767],[78.60254,30.06746],[78.60253,30.06724],[78.60248,30.06698],[78.60233,30.06661],[78.60213,30.06627],[78.60182,30.06588],[78.6014,30.06548],[78.60094,30.06512],[78.60057,30.0649],[78.60018,30.06473],[78.59977,30.06462],[78.59935,30.06457],[78.59896,30.06457],[78.59852,30.06462],[78.59797,30.06475],[78.59746,30.06493],[78.59489,30.06598],[78.59396,30.06631],[78.5931,30.06649],[78.59241,30.06651],[78.59193,30.06641],[78.59145,30.06616],[78.59105,30.06586],[78.59063,30.06542],[78.59021,30.06484],[78.58994,30.06433],[78.5897,30.06375],[78.58956,30.06314],[78.58946,30.06257],[78.58943,30.06192],[78.58944,30.06109],[78.5895,30.06038],[78.5897,30.05868],[78.58988,30.05735],[78.59,30.05624],[78.59,30.05568],[78.58997,30.05516],[78.58993,30.05465],[78.58975,30.05381],[78.58966,30.05347],[78.58955,30.05322],[78.58937,30.05304],[78.58908,30.05287],[78.5886,30.05268],[78.58797,30.05253],[78.5873,30.05244],[78.58671,30.05242],[78.58621,30.05246],[78.58566,30.05255],[78.58516,30.05271],[78.58464,30.05295],[78.58421,30.0532],[78.58389,30.05347],[78.58354,30.05384],[78.58308,30.05442],[78.58203,30.05568],[78.58174,30.0561],[78.58151,30.05647],[78.58128,30.05693],[78.5805,30.05895],[78.58036,30.05929],[78.58015,30.05974],[78.57985,30.06036],[78.57963,30.06076],[78.57941,30.06115],[78.5792,30.06145],[78.57891,30.06178],[78.57856,30.06211],[78.57823,30.06233],[78.57785,30.06252],[78.57735,30.06273],[78.57654,30.06303],[78.57615,30.06315],[78.57577,30.06322],[78.57532,30.06329],[78.57472,30.06334],[78.57423,30.06338],[78.57377,30.06337],[78.57329,30.06333],[78.57283,30.06323],[78.57242,30.06309],[78.57137,30.06265],[78.57093,30.06248],[78.57034,30.0623],[78.56951,30.06208],[78.56867,30.06188],[78.56784,30.06172],[78.56721,30.06163],[78.56671,30.06159],[78.56633,30.0616],[78.56601,30.06163],[78.56572,30.0617],[78.56549,30.06184],[78.56531,30.06203],[78.56506,30.06242],[78.56467,30.06317],[78.56432,30.064],[78.56411,30.06472],[78.56403,30.06519],[78.56396,30.06611],[78.56391,30.06657],[78.56385,30.06708],[78.56376,30.06752],[78.56364,30.06794],[78.56349,30.06833],[78.5634,30.06852],[78.56328,30.06871],[78.56319,30.06881],[78.56305,30.0689],[78.5628,30.06901],[78.56241,30.06913],[78.56174,30.06924],[78.55544,30.0699],[78.55364,30.07005],[78.55097,30.07021],[78.55038,30.07028],[78.5498,30.0704],[78.54929,30.07054],[78.54885,30.07071],[78.54591,30.07229],[78.54523,30.07258],[78.54467,30.07276],[78.54428,30.07285],[78.54376,30.07289],[78.54106,30.07294],[78.5408,30.07296],[78.54053,30.07301],[78.54017,30.07312],[78.53903,30.07353],[78.53846,30.07375],[78.53381,30.07547],[78.53336,30.07561],[78.53305,30.07567],[78.53277,30.0757],[78.5324,30.0757],[78.5319,30.07566],[78.53111,30.07554],[78.52933,30.07514],[78.528,30.07486],[78.52697,30.07465],[78.52647,30.07453],[78.52585,30.07433],[78.52536,30.07413],[78.52505,30.07398],[78.52488,30.07386],[78.5247,30.07371],[78.52337,30.07234],[78.52276,30.07163],[78.52262,30.0714],[78.52254,30.07116],[78.52252,30.07092],[78.52257,30.07074],[78.52283,30.07008],[78.52316,30.06931],[78.52333,30.06891],[78.52348,30.06847],[78.52355,30.06819],[78.52358,30.06783],[78.52356,30.06743],[78.52345,30.06698],[78.52331,30.06655],[78.52313,30.0662],[78.52297,30.06601],[78.52272,30.06583],[78.52241,30.06569],[78.52209,30.06563],[78.5218,30.06561],[78.52154,30.06564],[78.52116,30.06575],[78.52033,30.06607],[78.51992,30.06621],[78.51961,30.06628],[78.51928,30.06632],[78.51652,30.06645],[78.51556,30.06653],[78.51513,30.06654],[78.51474,30.0665],[78.51431,30.06641],[78.51394,30.06627],[78.51375,30.06613],[78.51365,30.06597],[78.51356,30.06571],[78.51348,30.06538],[78.51342,30.06495],[78.51336,30.06443],[78.51335,30.06381],[78.51339,30.06345],[78.51346,30.06307],[78.51359,30.06267],[78.51397,30.06165],[78.51414,30.06111],[78.51423,30.06069],[78.5143,30.06017],[78.51432,30.05959],[78.5143,30.05908],[78.51425,30.05865],[78.51413,30.05813],[78.51401,30.05771],[78.51385,30.05731],[78.51365,30.05698],[78.51342,30.05666],[78.51309,30.05626],[78.51261,30.05576],[78.51228,30.05549],[78.51186,30.05529],[78.51142,30.05518],[78.51096,30.05515],[78.51032,30.05519],[78.5098,30.05528],[78.50917,30.05544],[78.50827,30.05574],[78.50725,30.05615],[78.50628,30.05662],[78.50553,30.05706],[78.50468,30.05762],[78.50405,30.05813],[78.50236,30.0597],[78.50082,30.06115],[78.49984,30.06205],[78.49899,30.06291],[78.4987,30.06327],[78.49853,30.06351],[78.49841,30.06374],[78.49832,30.06401],[78.49828,30.06432],[78.49825,30.06485],[78.49827,30.06582],[78.49833,30.06654],[78.49845,30.06721],[78.49864,30.06771],[78.49894,30.06827],[78.49956,30.06942],[78.50014,30.07058],[78.50038,30.07114],[78.50061,30.07175],[78.50077,30.07229],[78.50086,30.07278],[78.50088,30.07316],[78.50082,30.07367],[78.50067,30.07422],[78.50046,30.07465],[78.50017,30.07507],[78.4998,30.07538],[78.49942,30.07555],[78.49895,30.07569],[78.49845,30.07573],[78.49801,30.0757],[78.49761,30.07561],[78.49701,30.07544],[78.49617,30.07515],[78.4953,30.07476],[78.49485,30.07456],[78.49433,30.07434],[78.49361,30.07395],[78.49309,30.07361],[78.49272,30.07324],[78.49245,30.07284],[78.49228,30.07246],[78.49213,30.07199],[78.49172,30.07021],[78.49145,30.0692],[78.4911,30.06803],[78.49088,30.0675],[78.49071,30.06708],[78.49039,30.06647],[78.48946,30.06483],[78.48918,30.06432],[78.48891,30.06375],[78.48866,30.06312],[78.48841,30.06231],[78.48826,30.06169],[78.48814,30.061],[78.48796,30.06005],[78.48782,30.05945],[78.48759,30.05901],[78.48723,30.05858],[78.48684,30.05822],[78.4864,30.05792],[78.48534,30.05735],[78.48336,30.05628],[78.48245,30.05586],[78.48153,30.05552],[78.48099,30.05538],[78.4804,30.05537],[78.47984,30.0555],[78.47932,30.05576],[78.47899,30.05607],[78.47874,30.05647],[78.47862,30.0568],[78.47851,30.05725],[78.47849,30.05782],[78.47859,30.05842],[78.47875,30.05907],[78.47897,30.05981],[78.47912,30.06054],[78.47918,30.06112],[78.47922,30.06173],[78.4792,30.06219],[78.47912,30.0627],[78.4786,30.06476],[78.47844,30.06525],[78.47818,30.06569],[78.47785,30.06598],[78.4775,30.06616],[78.47707,30.06627],[78.47651,30.06624],[78.47563,30.06608],[78.47454,30.06579],[78.47317,30.06502],[78.47277,30.06476],[78.47224,30.06467],[78.4712,30.06462],[78.46989,30.06445],[78.46877,30.06429],[78.46803,30.06425],[78.46732,30.06424],[78.46669,30.06429],[78.46619,30.06435],[78.4658,30.06444],[78.46546,30.06453],[78.465,30.06468],[78.46452,30.06486],[78.46381,30.06515],[78.46331,30.06541],[78.46239,30.06593],[78.4613,30.06657],[78.46079,30.06681],[78.46035,30.06698],[78.45992,30.06709],[78.45937,30.06719],[78.45745,30.06744],[78.45294,30.06826],[78.45282,30.06828],[78.45174,30.06864],[78.45106,30.06893],[78.45049,30.06924],[78.44999,30.06961],[78.44935,30.07022],[78.44846,30.07116],[78.44735,30.07239],[78.44678,30.07301],[78.44615,30.07359],[78.44491,30.0745],[78.44353,30.0753],[78.44237,30.07587],[78.44081,30.07654],[78.43756,30.07801],[78.43669,30.07849],[78.43577,30.07913],[78.43481,30.07993],[78.43417,30.08053],[78.43377,30.08106],[78.43356,30.08147],[78.43347,30.08184],[78.43346,30.08212],[78.43356,30.08248],[78.43397,30.08325],[78.43421,30.08378],[78.43433,30.08416],[78.4344,30.08457],[78.43453,30.08567],[78.43462,30.08642],[78.43468,30.08727],[78.43468,30.0877],[78.43464,30.08824],[78.43444,30.09007],[78.43405,30.09525],[78.43404,30.09541],[78.43395,30.09627],[78.43373,30.09794],[78.43365,30.09869],[78.43365,30.09913],[78.43372,30.0995],[78.43386,30.0999],[78.43458,30.10128],[78.4348,30.10174],[78.43492,30.10213],[78.43525,30.10393],[78.43535,30.10444],[78.43546,30.10487],[78.4357,30.10549],[78.43591,30.10596],[78.43618,30.10646],[78.43651,30.10702],[78.43827,30.10955],[78.43848,30.10994],[78.43859,30.11036],[78.4386,30.1109],[78.43852,30.11131],[78.43839,30.11166],[78.43822,30.11196],[78.438,30.11224],[78.43765,30.11256],[78.43734,30.11273],[78.43698,30.11284],[78.43631,30.11293],[78.43567,30.11299],[78.43486,30.11303],[78.434,30.11305],[78.42846,30.11306],[78.42724,30.11311],[78.42635,30.11323],[78.42579,30.11336],[78.42533,30.11357],[78.42494,30.11383],[78.42465,30.1141],[78.42446,30.11436],[78.42362,30.11553],[78.42209,30.11782],[78.42177,30.11838],[78.42152,30.11895],[78.42138,30.11938],[78.42135,30.11981],[78.42145,30.12056],[78.4216,30.12119],[78.42161,30.12148],[78.4215,30.1218],[78.42126,30.12216],[78.42074,30.12284],[78.42015,30.12364],[78.41973,30.1243],[78.41948,30.12477],[78.41927,30.12525],[78.41909,30.12586],[78.41881,30.12693],[78.41861,30.12819],[78.41852,30.129],[78.41848,30.12924],[78.41841,30.12944],[78.41831,30.12966],[78.41804,30.13007],[78.41765,30.13054],[78.41715,30.13091],[78.41653,30.13125],[78.41568,30.13164],[78.4142,30.13229],[78.41331,30.13272],[78.41282,30.13298],[78.41237,30.13326],[78.41191,30.13359],[78.41157,30.13392],[78.41102,30.1345],[78.4107,30.13481],[78.41038,30.13506],[78.40994,30.13528],[78.40934,30.13545],[78.40723,30.13587],[78.40669,30.136],[78.40621,30.13615],[78.40577,30.13632],[78.40524,30.13656],[78.40424,30.13712],[78.40374,30.13735],[78.40329,30.13753],[78.40302,30.13762],[78.40274,30.13768],[78.40227,30.13774],[78.40147,30.13779],[78.4008,30.1378],[78.40026,30.13774],[78.39962,30.13762],[78.39894,30.13743],[78.39831,30.13719],[78.39674,30.13652],[78.39652,30.13642],[78.39576,30.13619],[78.39534,30.13608],[78.39496,30.136],[78.39456,30.13594],[78.39405,30.13588],[78.39325,30.13582],[78.39245,30.13576],[78.39201,30.13566],[78.39152,30.13545],[78.39125,30.13522],[78.39109,30.13497],[78.39095,30.13463],[78.39078,30.13426],[78.39052,30.1327],[78.39049,30.13234],[78.39049,30.13208],[78.39052,30.13187],[78.39062,30.1317],[78.39077,30.13155],[78.39136,30.13117],[78.39177,30.13091],[78.39201,30.13072],[78.39216,30.13057],[78.39227,30.13038],[78.39234,30.13016],[78.39237,30.12992],[78.39235,30.12959],[78.39221,30.1288],[78.39216,30.12832],[78.39215,30.12786],[78.39216,30.12727],[78.3922,30.12651],[78.39227,30.12567],[78.39223,30.12504],[78.39215,30.12445],[78.39204,30.12399],[78.39185,30.12347],[78.3915,30.12284],[78.3911,30.12222],[78.39074,30.12177],[78.39043,30.12147],[78.39005,30.121],[78.3894,30.12069],[78.38875,30.12081],[78.38848,30.12098],[78.38799,30.12124],[78.38734,30.12161],[78.38728,30.12163],[78.38689,30.12172],[78.38641,30.12177],[78.38538,30.12179],[78.38399,30.12174],[78.38289,30.12164],[78.38205,30.12154],[78.38149,30.12145],[78.38119,30.12136],[78.3809,30.12124],[78.38068,30.12108],[78.37773,30.11819],[78.37743,30.11797],[78.37711,30.11778],[78.37678,30.11765],[78.37653,30.11758],[78.37612,30.11748],[78.37534,30.11761],[78.37359,30.11706],[78.37315,30.11701],[78.37275,30.11701],[78.37207,30.11708],[78.37162,30.11716],[78.37125,30.11724],[78.37081,30.11738],[78.37032,30.11756],[78.36996,30.11772],[78.36807,30.11855],[78.36738,30.11885],[78.36671,30.11918],[78.36586,30.11961],[78.3651,30.12008],[78.36422,30.12065],[78.36348,30.12113],[78.36297,30.12151],[78.3625,30.12193],[78.36093,30.12338],[78.36049,30.12369],[78.3601,30.12395],[78.35947,30.12431],[78.35884,30.12466],[78.35692,30.12556],[78.35646,30.12573],[78.35574,30.12599],[78.35237,30.12717],[78.35168,30.12749],[78.35092,30.12786],[78.3495,30.12853],[78.34814,30.12932],[78.34716,30.13014],[78.3461,30.13132],[78.34544,30.13207],[78.34499,30.1325],[78.34454,30.13289],[78.34406,30.13323],[78.34336,30.13365],[78.34277,30.13394],[78.34239,30.1341],[78.34179,30.13429],[78.34105,30.1345],[78.34025,30.13468],[78.33979,30.13473],[78.33949,30.13476],[78.33889,30.13478],[78.33811,30.13473],[78.337,30.13457],[78.33619,30.13441],[78.33534,30.13417],[78.33395,30.13373],[78.3328,30.13328],[78.33218,30.13299],[78.33167,30.13266],[78.33125,30.13234],[78.33101,30.13214],[78.33085,30.13192],[78.33074,30.13171],[78.33063,30.13142],[78.33056,30.13102],[78.33057,30.13055],[78.33061,30.1299],[78.33068,30.12901],[78.33066,30.12847],[78.33061,30.12806],[78.33052,30.12765],[78.33033,30.12705],[78.32998,30.12623],[78.32972,30.12567],[78.32944,30.1252],[78.3291,30.12478],[78.32876,30.12448],[78.32857,30.12434],[78.32828,30.12418],[78.32796,30.12406],[78.32764,30.12399],[78.32723,30.12393],[78.32678,30.12389],[78.32645,30.12392],[78.32607,30.12401],[78.32577,30.1242],[78.32549,30.12447],[78.32515,30.12485],[78.32465,30.12547],[78.32418,30.12596],[78.32388,30.12618],[78.3236,30.1263],[78.32327,30.12637],[78.32288,30.1264],[78.32247,30.12636],[78.32194,30.12626],[78.32087,30.12601],[78.32047,30.1259],[78.31974,30.1257],[78.319,30.12547],[78.31753,30.12493],[78.31639,30.12448],[78.31549,30.12406],[78.31454,30.12353],[78.31336,30.12277],[78.31246,30.12216],[78.31156,30.12141],[78.31079,30.12064],[78.31029,30.11998],[78.30994,30.11938],[78.30957,30.11864],[78.3091,30.11754],[78.30887,30.11682],[78.30878,30.11613],[78.30876,30.1155],[78.30884,30.11494],[78.30902,30.11415],[78.30926,30.11347],[78.3099,30.11254],[78.31002,30.11156],[78.31017,30.11098],[78.31029,30.11039],[78.31033,30.10973],[78.31027,30.10912],[78.3101,30.10851],[78.30982,30.10776],[78.30937,30.10678],[78.30909,30.10612],[78.30876,30.10553],[78.30837,30.10496],[78.30785,30.10439],[78.30732,30.10394],[78.30653,30.10339],[78.30561,30.10281],[78.30486,30.10236],[78.30403,30.10205],[78.30337,30.10188],[78.30247,30.10172],[78.30125,30.10163],[78.29996,30.10163],[78.29886,30.10174],[78.29676,30.10206],[78.2959,30.10208],[78.29479,30.10196],[78.29383,30.10175],[78.2932,30.10157],[78.29255,30.10126],[78.29158,30.1007],[78.29091,30.1002],[78.29044,30.09964],[78.29011,30.09911],[78.28988,30.09863],[78.28971,30.09801],[78.28967,30.09742],[78.28971,30.09677],[78.28977,30.09609],[78.28996,30.09509],[78.29022,30.09425],[78.29062,30.09333],[78.29157,30.09144],[78.29206,30.09025],[78.29247,30.08907],[78.29266,30.08792],[78.29267,30.08653],[78.29252,30.08501],[78.29226,30.08353],[78.29166,30.08138],[78.29093,30.07948],[78.28995,30.07707],[78.28938,30.07583],[78.289,30.07516],[78.28848,30.07436],[78.28526,30.06949],[78.28382,30.06716],[78.28119,30.06288],[78.2805,30.06175],[78.27985,30.06085],[78.27908,30.05995],[78.27627,30.05687],[78.2757,30.05615],[78.27549,30.05553],[78.27532,30.05489],[78.27522,30.05428],[78.27516,30.05354],[78.27502,30.05108],[78.27491,30.0502],[78.27468,30.0495],[78.27428,30.04878],[78.27362,30.04808],[78.27208,30.04675],[78.27173,30.04614],[78.27154,30.04549],[78.2726,30.04379],[78.27307,30.04265],[78.27321,30.04207],[78.27314,30.04157],[78.27265,30.04057],[78.27142,30.03931],[78.27087,30.03875],[78.27037,30.03824],[78.26767,30.03639],[78.2659,30.03551],[78.26202,30.03506],[78.2582,30.03451],[78.25155,30.03206],[78.25059,30.03125],[78.25031,30.03047],[78.25027,30.02873],[78.24711,30.02582],[78.24395,30.02344],[78.24443,30.02104],[78.24497,30.01838],[78.24471,30.01815],[78.24301,30.01666],[78.2409,30.01573],[78.23858,30.01523],[78.23515,30.01199],[78.23213,30.00422],[78.23202,30.00016],[78.23168,29.99891],[78.23115,29.99721],[78.23111,29.99536],[78.23154,29.99342],[78.23198,29.9924],[78.23174,29.99098],[78.23078,29.98902],[78.22963,29.98785],[78.22674,29.98626],[78.22584,29.98539],[78.22508,29.98413],[78.22429,29.98355],[78.22275,29.98303],[78.22125,29.98323],[78.21977,29.98392],[78.21757,29.98637],[78.21612,29.98709],[78.21483,29.98744],[78.21337,29.98749],[78.20883,29.98664],[78.20687,29.98588],[78.20534,29.98472],[78.20159,29.98135],[78.19957,29.98007],[78.19771,29.97939],[78.19632,29.97931],[78.19556,29.97959],[78.19523,29.97985],[78.19515,29.98032],[78.19453,29.98051],[78.19288,29.98035],[78.19201,29.97996],[78.19125,29.97943],[78.19016,29.97814],[78.18835,29.97558],[78.18685,29.97351],[78.18587,29.9709],[78.18525,29.96914],[78.18309,29.96515],[78.18038,29.96052],[78.1796,29.95908],[78.17899,29.95772],[78.17867,29.95719],[78.17854,29.95699],[78.17723,29.95488],[78.17599,29.95187],[78.17464,29.94717],[78.17437,29.94687],[78.17401,29.94662],[78.17024,29.94463],[78.1697,29.94445],[78.16905,29.94434],[78.16623,29.94447],[78.16435,29.94446]]}},{"type":"Feature","properties":{"name":"Bhagirathi (reservoir reach)","source":"OpenStreetMap","role":"upstream"},"geometry":{"type":"LineString","coordinates":[[78.43939,30.44945],[78.43975,30.44842],[78.43987,30.44746],[78.43921,30.44609],[78.43683,30.44391],[78.43558,30.44273],[78.43391,30.44229],[78.43258,30.44105],[78.43176,30.43953],[78.43214,30.43888],[78.43832,30.43163],[78.44006,30.42972],[78.44146,30.42884],[78.44339,30.42817],[78.44884,30.42658],[78.45461,30.42401],[78.46065,30.41974],[78.46663,30.41256],[78.46953,30.40781],[78.47088,30.4049],[78.47187,30.40212],[78.47474,30.39557],[78.47577,30.3929],[78.47687,30.39013],[78.47765,30.38824],[78.47835,30.38618],[78.47884,30.38504],[78.47946,30.38321],[78.47955,30.38161],[78.47931,30.38043],[78.4789,30.37986]]}}]}